{"type": "FeatureCollection", "features": [{"type": "Feature", "properties": {"id": "387725", "elemento": "Camp, bancal. LLOCS", "texto_normalizado": "Sort de Pitarc"}, "geometry": {"type": "Polygon", "coordinates": [[[-0.15188678923438, 40.56884470277638], [-0.152404023000357, 40.569280473355654], [-0.152934053671241, 40.56941469060446], [-0.153487628611035, 40.569098673855095], [-0.153617914394303, 40.569772562309936], [-0.153639375603394, 40.57104749687365], [-0.153839659700928, 40.571114829105774], [-0.153499416023964, 40.57131297923726], [-0.152253553780735, 40.570757956917085], [-0.152219560808561, 40.56971763389379], [-0.15188678923438, 40.56884470277638]]]}}, {"type": "Feature", "properties": {"id": "383804", "elemento": "Ombria. LLOCS", "texto_normalizado": "Ombria dels Carrascals"}, "geometry": {"type": "Polygon", "coordinates": [[[-0.147895336596123, 40.52948646810382], [-0.144831468421855, 40.53053876817921], [-0.144396111752769, 40.530003706239626], [-0.146649986348048, 40.52963840608037], [-0.148288541220018, 40.52708918926976], [-0.149691304492006, 40.52727476138197], [-0.149866846699115, 40.52792254869251], [-0.148822691357212, 40.528977133395045], [-0.147895336596123, 40.52948646810382]]]}}, {"type": "Feature", "properties": {"id": "365729", "elemento": "Bosc. LLOCS", "texto_normalizado": "els Carrascals"}, "geometry": {"type": "Polygon", "coordinates": [[[-0.130346741357975, 40.5120109073641], [-0.136159628226612, 40.514788621347726], [-0.141922644209709, 40.51777135220455], [-0.146084666977851, 40.52958125099255], [-0.130335239503517, 40.52081804775206], [-0.120122024318513, 40.520608601379514], [-0.120259539957607, 40.50949717690194], [-0.130346741357975, 40.5120109073641]]]}}, {"type": "Feature", "properties": {"id": "378014", "elemento": "Camp, bancal. LLOCS", "texto_normalizado": "el Pla del Corral"}, "geometry": {"type": "Polygon", "coordinates": [[[-0.108451943659921, 40.56528889609346], [-0.107499695900402, 40.56526901034317], [-0.107037055240732, 40.56518790834376], [-0.106092368509075, 40.56526451820959], [-0.104278709998006, 40.56568473884772], [-0.101710932270832, 40.566049258104606], [-0.101352661712241, 40.56542064743035], [-0.100448879855188, 40.5648816024098], [-0.099905274140984, 40.56396235548298], [-0.099944029582669, 40.563788565764426], [-0.100598728946253, 40.563582586910016], [-0.104162818240687, 40.56378326773313], [-0.105341212686995, 40.564053620014796], [-0.107159553767503, 40.56494372814787], [-0.10763976095006, 40.565040164004934], [-0.108273365750477, 40.56508185665556], [-0.108778794971468, 40.56495550041387], [-0.108451943659921, 40.56528889609346]]]}}, {"type": "Feature", "properties": {"id": "401154", "elemento": "Devesa. LLOCS", "texto_normalizado": "Devesa de la Junça"}, "geometry": {"type": "Polygon", "coordinates": [[[-0.104214219373646, 40.56002502588902], [-0.105157985978029, 40.56004869757608], [-0.105126952962707, 40.560768490014766], [-0.104183176275524, 40.56074481772965], [-0.104214219373646, 40.56002502588902]]]}}, {"type": "Feature", "properties": {"id": "376874", "elemento": "Paratge. LLOCS", "texto_normalizado": "les Carboneres de Guardiola"}, "geometry": {"type": "Polygon", "coordinates": [[[-0.147088097631649, 40.54709298758123], [-0.147344927353147, 40.54643999444032], [-0.147279228237329, 40.54602529079384], [-0.147968494301191, 40.545978770649285], [-0.148932268876331, 40.54584369920487], [-0.15015579966892, 40.54547671684819], [-0.151000116974228, 40.54521157744181], [-0.15164849032313, 40.54465561950579], [-0.151996117404727, 40.54480718439414], [-0.15244099456938, 40.54561254391352], [-0.151593649067551, 40.54594911386663], [-0.151279464859226, 40.546727803235456], [-0.150964630587955, 40.54727610367789], [-0.150237041221143, 40.54773477591266], [-0.151594436101854, 40.54789537712747], [-0.151320229570687, 40.548222252445235], [-0.15051310988017, 40.548591582200594], [-0.149635553243533, 40.548657300630374], [-0.147848469439917, 40.549296333489444], [-0.147406952315926, 40.548657860467756], [-0.147322805556216, 40.5481870942546], [-0.147131934522532, 40.547777241821436], [-0.147088097631649, 40.54709298758123]]]}}, {"type": "Feature", "properties": {"id": "390452", "elemento": "Fondo, foia. DEPRESSIONS DE LA SUPERFÍCIE TERRESTRE", "texto_normalizado": "Foia de Marinet"}, "geometry": {"type": "Polygon", "coordinates": [[[-0.161472309904374, 40.55857287008992], [-0.163393995957392, 40.55890608559365], [-0.165990271504264, 40.55855677293878], [-0.16635355282943, 40.558833468079115], [-0.164335969362193, 40.55890308322074], [-0.163040008735051, 40.55914927589821], [-0.161044144324173, 40.558846005827405], [-0.161472309904374, 40.55857287008992]]]}}, {"type": "Feature", "properties": {"id": "404361", "elemento": "Tallat, cingle. ESPADAT DE ROCA", "texto_normalizado": "Cingles de la Giroveta"}, "geometry": {"type": "Polygon", "coordinates": [[[-0.162243236014656, 40.53806032417746], [-0.16159164050228, 40.53820318295872], [-0.161372172953461, 40.53748283912945], [-0.161981486942573, 40.537354829113944], [-0.162243236014656, 40.53806032417746]]]}}, {"type": "Feature", "properties": {"id": "372716", "elemento": "Partida. LLOCS", "texto_normalizado": "la Torre Segura"}, "geometry": {"type": "Polygon", "coordinates": [[[-0.121531920611038, 40.53613526763086], [-0.122118606837671, 40.53573681452072], [-0.13597876007881, 40.54668419500959], [-0.134345072833945, 40.547056733008496], [-0.121052967208183, 40.53662147257201], [-0.121531920611038, 40.53613526763086]]]}}, {"type": "Feature", "properties": {"id": "372667", "elemento": "Bosc. LLOCS", "texto_normalizado": "Rourera de la Giroveta"}, "geometry": {"type": "Polygon", "coordinates": [[[-0.16129538951076, 40.53880757727169], [-0.162144944203405, 40.53841538166405], [-0.162119474213521, 40.53901849033126], [-0.162271541714069, 40.54034885417338], [-0.162312529126693, 40.54135078969334], [-0.162163933064884, 40.54240367117372], [-0.161644505049091, 40.542621274272435], [-0.160344913469197, 40.5430659472727], [-0.156632319412111, 40.543196997801154], [-0.151992172822811, 40.543960417456624], [-0.151564703449233, 40.543665878369346], [-0.152740972459478, 40.54217066715049], [-0.156699990010936, 40.541490237478705], [-0.159953610943831, 40.54025213730784], [-0.161038056604175, 40.53947647913512], [-0.16129538951076, 40.53880757727169]]]}}, {"type": "Feature", "properties": {"id": "387417", "elemento": "Camp, bancal. LLOCS", "texto_normalizado": "la Serradeta de les Mules"}, "geometry": {"type": "Polygon", "coordinates": [[[-0.153618048538465, 40.55774481930787], [-0.153679130286343, 40.55777810098532], [-0.153078625334925, 40.55843057478165], [-0.152857438209152, 40.55848867081261], [-0.152786961618044, 40.55843132574664], [-0.152644998178821, 40.5583404418032], [-0.15256479090137, 40.55826696879826], [-0.152423474533911, 40.55840647214476], [-0.152291216682464, 40.55857797435105], [-0.152008610267687, 40.558610721447884], [-0.151491411168409, 40.55852646571643], [-0.151072567799954, 40.55833342147264], [-0.150395971852425, 40.55807840652709], [-0.149667359322808, 40.5578221023883], [-0.149419038497776, 40.557537936725915], [-0.148917645963905, 40.55732695848161], [-0.148819707107043, 40.556935291086816], [-0.148964020543845, 40.55697063092944], [-0.149445611180759, 40.55715728875726], [-0.150122194110377, 40.557412308876835], [-0.150552780914948, 40.55757387082161], [-0.15099276373664, 40.55775949519839], [-0.151610297694915, 40.55793361127804], [-0.152162407437395, 40.5579313452966], [-0.152248672525071, 40.55786197880953], [-0.152814240077852, 40.557542288559304], [-0.153214629828601, 40.557679264589844], [-0.153453931937348, 40.55768516570476], [-0.153618048538465, 40.55774481930787]]]}}, {"type": "Feature", "properties": {"id": "401144", "elemento": "Paratge. LLOCS", "texto_normalizado": "els Carrerons"}, "geometry": {"type": "Polygon", "coordinates": [[[-0.119285649273972, 40.56147089657654], [-0.119724032187492, 40.56148183586944], [-0.119693153629878, 40.56220163738005], [-0.118749344681785, 40.56217808340539], [-0.118765364828867, 40.5618047676717], [-0.118780233323446, 40.56145828248983], [-0.119285649273972, 40.56147089657654]]]}}, {"type": "Feature", "properties": {"id": "390403", "elemento": "Camp, bancal. LLOCS", "texto_normalizado": "el Vitxí"}, "geometry": {"type": "Polygon", "coordinates": [[[-0.13879524476453, 40.55632958927275], [-0.13959244019564, 40.5558568283744], [-0.139884447848039, 40.55615343458679], [-0.140545740460533, 40.55609377206493], [-0.141211086952521, 40.55593888040789], [-0.140566732108003, 40.55621229242634], [-0.140193325575957, 40.55633411584471], [-0.138024839261799, 40.557031065959634], [-0.137220101455716, 40.557340311438836], [-0.136861687469887, 40.557318912339184], [-0.138258108096009, 40.55668963490763], [-0.13879524476453, 40.55632958927275]]]}}, {"type": "Feature", "properties": {"id": "387546", "elemento": "Camp, bancal. LLOCS", "texto_normalizado": "la Serrada de Julià"}, "geometry": {"type": "Polygon", "coordinates": [[[-0.158030599842991, 40.57106731973946], [-0.157958762021699, 40.57104171980814], [-0.15788826836221, 40.57098437647787], [-0.157779508598559, 40.57084665381799], [-0.157617708881074, 40.57073145621308], [-0.157413947446129, 40.570623168480154], [-0.157160507234907, 40.570458050144595], [-0.157017505878834, 40.57039097799903], [-0.156823144002793, 40.57030675194994], [-0.156625758377351, 40.570293946525055], [-0.156478051530654, 40.57033797131956], [-0.156253465164362, 40.570475426776376], [-0.155984561779418, 40.57067534188001], [-0.155767689148819, 40.570876537500936], [-0.155594795611891, 40.57102321058696], [-0.155457492588141, 40.57106748951614], [-0.155224532638475, 40.570910815987446], [-0.155315520577453, 40.57073035035064], [-0.1555025190212, 40.57049664387101], [-0.155645873769871, 40.57030952405452], [-0.155800642313336, 40.57009885407539], [-0.155974205341083, 40.56993631026004], [-0.156170261354565, 40.56973460134249], [-0.156261580044758, 40.56954619870436], [-0.1564136566121, 40.569399012628544], [-0.156516374424886, 40.56943331763505], [-0.156760074526974, 40.569582309672015], [-0.157087028230748, 40.569733351658876], [-0.157394849663884, 40.569844202587234], [-0.15767548572083, 40.56985905664121], [-0.157949410801432, 40.569786363355554], [-0.158260938344724, 40.56956366169038], [-0.158423072437024, 40.56967092318637], [-0.158517378958632, 40.57039613365525], [-0.158030599842991, 40.57106731973946]]]}}, {"type": "Feature", "properties": {"id": "401111", "elemento": "Fondo, foia. DEPRESSIONS DE LA SUPERFÍCIE TERRESTRE", "texto_normalizado": "Foieta del Calor"}, "geometry": {"type": "Polygon", "coordinates": [[[-0.110943069393991, 40.553728608704226], [-0.111886753198224, 40.55375222241723], [-0.111855799130712, 40.55447201992136], [-0.110912105246621, 40.55444840561175], [-0.110943069393991, 40.553728608704226]]]}}, {"type": "Feature", "properties": {"id": "388054", "elemento": "Bosc. LLOCS", "texto_normalizado": "l'Oronal"}, "geometry": {"type": "Polygon", "coordinates": [[[-0.139237311958869, 40.56702677819054], [-0.138951204032771, 40.56738510252109], [-0.139135387825763, 40.56770742054721], [-0.139083956338886, 40.56793651674256], [-0.138742173340019, 40.568134584067586], [-0.138927709681432, 40.56842516045129], [-0.138796331723026, 40.5688190947977], [-0.139307502830573, 40.5690462473492], [-0.139074094069507, 40.56938999010649], [-0.138754050214981, 40.56981102357558], [-0.138091858942655, 40.5694609667663], [-0.1377880450483, 40.568524007956], [-0.138491398683417, 40.56717510956126], [-0.139237311958869, 40.56702677819054]]]}}, {"type": "Feature", "properties": {"id": "378806", "elemento": "Solana. LLOCS", "texto_normalizado": "Solà del Mas de Marín"}, "geometry": {"type": "Polygon", "coordinates": [[[-0.169290158851341, 40.568642116071715], [-0.170250086235908, 40.56779182898246], [-0.178106764767912, 40.57269255327673], [-0.177482558215873, 40.57348756481507], [-0.169290158851341, 40.568642116071715]]]}}, {"type": "Feature", "properties": {"id": "387854", "elemento": "Devesa. LLOCS", "texto_normalizado": "Prat de Guardiola"}, "geometry": {"type": "Polygon", "coordinates": [[[-0.160667851253806, 40.5585654171588], [-0.161044246216776, 40.55771276689496], [-0.161399917484259, 40.557266727760705], [-0.162801086484441, 40.55746600810006], [-0.162676100359963, 40.55837250735923], [-0.16123304023217, 40.558182124752555], [-0.160835764470396, 40.55920274085881], [-0.160741288565399, 40.55956782010849], [-0.160436029430341, 40.55999126573808], [-0.160251176387073, 40.56010289699438], [-0.160566433483677, 40.5607034617472], [-0.160092672589232, 40.56043164623843], [-0.160283652609063, 40.55927654293253], [-0.160667851253806, 40.5585654171588]]]}}, {"type": "Feature", "properties": {"id": "388214", "elemento": "Ombria. LLOCS", "texto_normalizado": "Ombria de Cros"}, "geometry": {"type": "Polygon", "coordinates": [[[-0.135731610706187, 40.5696010190596], [-0.134740319886785, 40.5696399678151], [-0.134239130882305, 40.56966724477248], [-0.134123453132866, 40.568472801299336], [-0.134943619968597, 40.56731747726012], [-0.135731610706187, 40.5696010190596]]]}}, {"type": "Feature", "properties": {"id": "381875", "elemento": "Devesa. LLOCS", "texto_normalizado": "Devesa dels Carrascals"}, "geometry": {"type": "Polygon", "coordinates": [[[-0.128684259578603, 40.5278489034689], [-0.127236113837759, 40.526168503518846], [-0.12921770444229, 40.52462107800787], [-0.130447220559533, 40.521180178998726], [-0.131305467588419, 40.52155897988467], [-0.128684259578603, 40.5278489034689]]]}}, {"type": "Feature", "properties": {"id": "379798", "elemento": "Solana. LLOCS", "texto_normalizado": "Solà de Racó"}, "geometry": {"type": "Polygon", "coordinates": [[[-0.12419401946087, 40.56550589017118], [-0.125153401365443, 40.56475129510621], [-0.125100485138809, 40.564527550961785], [-0.124819463027989, 40.564035979359346], [-0.124221326273051, 40.56340940636528], [-0.124148886188776, 40.562668827664176], [-0.124525164016214, 40.56263848263388], [-0.125595688157753, 40.56366606403553], [-0.12556196741168, 40.563967089229], [-0.12629900312255, 40.56475598967707], [-0.127233321702373, 40.565073166553375], [-0.127623851973759, 40.56544035656633], [-0.128116116792743, 40.56610796828435], [-0.12804792985676, 40.56672787536556], [-0.127545637148488, 40.56751174273877], [-0.125817648777753, 40.5667537874752], [-0.124714970125914, 40.56708379714918], [-0.124417576773979, 40.5661231324929], [-0.12419401946087, 40.56550589017118]]]}}, {"type": "Feature", "properties": {"id": "405001", "elemento": "Camp, bancal. LLOCS", "texto_normalizado": "Horteta del Mas de Marín"}, "geometry": {"type": "Polygon", "coordinates": [[[-0.175841782374114, 40.57028746947047], [-0.176461201504969, 40.57111448366684], [-0.176056840475687, 40.570920294600676], [-0.175542383903227, 40.57047079595084], [-0.175841782374114, 40.57028746947047]]]}}, {"type": "Feature", "properties": {"id": "382314", "elemento": "Camp, bancal. LLOCS", "texto_normalizado": "la Foia del Bosc de Marín"}, "geometry": {"type": "Polygon", "coordinates": [[[-0.163267664868135, 40.565742477927515], [-0.164462412000081, 40.5659899675731], [-0.16522886962787, 40.56651290743551], [-0.165953413876621, 40.5664744518858], [-0.165102967242538, 40.56827486345217], [-0.164176432275798, 40.56803877314581], [-0.162950148106175, 40.567488893827246], [-0.161838020794105, 40.567196012203105], [-0.160761763574495, 40.56658400361305], [-0.161864349172476, 40.5665170234128], [-0.163267664868135, 40.565742477927515]]]}}, {"type": "Feature", "properties": {"id": "382665", "elemento": "Camp, bancal. LLOCS", "texto_normalizado": "el Quadró"}, "geometry": {"type": "Polygon", "coordinates": [[[-0.155637629421698, 40.555769121065], [-0.15620461581523, 40.55648612087096], [-0.156382318534278, 40.55655802085541], [-0.156300938178306, 40.55688113558702], [-0.156836822916274, 40.55769240203566], [-0.157063269889203, 40.5584324954828], [-0.156889757480798, 40.55933266384086], [-0.156480468033611, 40.55899291295268], [-0.155910729683135, 40.55899873740101], [-0.154624116004057, 40.55847054110597], [-0.154166417789428, 40.55825073208052], [-0.153676522293808, 40.55780770098062], [-0.154346130986954, 40.55712182004254], [-0.154499507873905, 40.55682040450982], [-0.154743123780938, 40.55672442074303], [-0.155155860101206, 40.556324078030386], [-0.155637629421698, 40.555769121065]]]}}, {"type": "Feature", "properties": {"id": "383150", "elemento": "Camp, bancal. LLOCS", "texto_normalizado": "Bancal del Bosc"}, "geometry": {"type": "Polygon", "coordinates": [[[-0.14613088628482, 40.55714625976843], [-0.146511873266323, 40.55686374145885], [-0.147084759829449, 40.55696726952075], [-0.147810364333658, 40.557013003090006], [-0.148418327716901, 40.557412142503125], [-0.149664492597644, 40.55786663161253], [-0.149992551793431, 40.558173970151564], [-0.150086998676761, 40.558586754182606], [-0.14930181597691, 40.559110878767946], [-0.148590169988926, 40.55937466731643], [-0.147960157881411, 40.55918767072071], [-0.147751896057143, 40.559033257097916], [-0.147816850217388, 40.55882204375856], [-0.147155722790472, 40.558483981898505], [-0.14636502790376, 40.55825392696332], [-0.146195403462247, 40.55783383944348], [-0.14613088628482, 40.55714625976843]]]}}, {"type": "Feature", "properties": {"id": "385503", "elemento": "Camp, bancal. LLOCS", "texto_normalizado": "la Culblanca"}, "geometry": {"type": "Polygon", "coordinates": [[[-0.150219642186914, 40.55979206987979], [-0.151151195205851, 40.559850810194135], [-0.151685410282245, 40.55945488526396], [-0.152987280151219, 40.56003512517025], [-0.154494630534378, 40.56133304783131], [-0.15344842369023, 40.56135491733921], [-0.152870293170754, 40.56118972616438], [-0.152243871024889, 40.56068970092746], [-0.151502505381013, 40.560610422607624], [-0.151030403013638, 40.56099724651543], [-0.150328781184303, 40.56090177199947], [-0.150219642186914, 40.55979206987979]]]}}, {"type": "Feature", "properties": {"id": "383362", "elemento": "Camp, bancal. LLOCS", "texto_normalizado": "els Plans de la Torre Segura"}, "geometry": {"type": "Polygon", "coordinates": [[[-0.128678123836379, 40.54516059825375], [-0.128116739632623, 40.54513869072566], [-0.126886911571493, 40.54443286408128], [-0.12616421431997, 40.543556942876485], [-0.126942787030674, 40.54336978165007], [-0.128405738192435, 40.54349356279726], [-0.130094701345238, 40.543201921360804], [-0.131058124142003, 40.54307493405105], [-0.131400272123767, 40.543353526658876], [-0.129678084282187, 40.54442285741563], [-0.129032251455466, 40.54491520309566], [-0.128678123836379, 40.54516059825375]]]}}, {"type": "Feature", "properties": {"id": "386962", "elemento": "Solana. LLOCS", "texto_normalizado": "Solà del Garro"}, "geometry": {"type": "Polygon", "coordinates": [[[-0.128980722669488, 40.55077964252999], [-0.129424896962449, 40.55110844163283], [-0.129084193255463, 40.55128267691623], [-0.128662974829389, 40.5521221896382], [-0.128552947336961, 40.55274701495339], [-0.12792013127239, 40.55390695768999], [-0.127470842505499, 40.55442801402519], [-0.126857682336347, 40.55512769859358], [-0.126789947064338, 40.55500685509683], [-0.126976097084239, 40.55455074724098], [-0.126902712768088, 40.55431854991304], [-0.127071328311277, 40.55402882539005], [-0.126777649202905, 40.55407712284821], [-0.126715907075751, 40.554059698349114], [-0.127607251543934, 40.552699655705936], [-0.128980722669488, 40.55077964252999]]]}}, {"type": "Feature", "properties": {"id": "398374", "elemento": "Partida. LLOCS", "texto_normalizado": "les Clotxes"}, "geometry": {"type": "Polygon", "coordinates": [[[-0.127169873451333, 40.50945820302424], [-0.131765715254744, 40.50994169586541], [-0.131348266721739, 40.511863768640154], [-0.126984556529304, 40.511165243013934], [-0.127169873451333, 40.50945820302424]]]}}, {"type": "Feature", "properties": {"id": "385337", "elemento": "Camp, bancal. LLOCS", "texto_normalizado": "el Pla d'Olivares"}, "geometry": {"type": "Polygon", "coordinates": [[[-0.156212339126086, 40.518984752070395], [-0.154493534652464, 40.51975268201686], [-0.152325369560239, 40.518348768015834], [-0.153104286305168, 40.51765302612951], [-0.153809688556153, 40.51771013678478], [-0.15458953775027, 40.51822187826187], [-0.155781986487074, 40.51857695758123], [-0.156212339126086, 40.518984752070395]]]}}, {"type": "Feature", "properties": {"id": "391003", "elemento": "Bosc. LLOCS", "texto_normalizado": "Bosc d'Olivares"}, "geometry": {"type": "Polygon", "coordinates": [[[-0.157117339612756, 40.5195408671522], [-0.156956461547017, 40.51970213933814], [-0.15680699212036, 40.519593599176], [-0.156654434932398, 40.51955806666884], [-0.156504020287922, 40.51976725861743], [-0.156348109756117, 40.51971257838663], [-0.156015621141282, 40.519796537813846], [-0.155184270130044, 40.51976334734578], [-0.155058280933182, 40.5196903369652], [-0.155266931849694, 40.51948258177354], [-0.155750506330289, 40.51917356239448], [-0.156198116223528, 40.51902570989132], [-0.156429699668405, 40.51906318925583], [-0.156697911743566, 40.519219139029836], [-0.157117339612756, 40.5195408671522]]]}}, {"type": "Feature", "properties": {"id": "383065", "elemento": "Paratge. LLOCS", "texto_normalizado": "la Coa del Mas de Marín"}, "geometry": {"type": "Polygon", "coordinates": [[[-0.174988169674912, 40.55482530636378], [-0.17459982189181, 40.55464898127104], [-0.174526269804613, 40.55441680868063], [-0.174385566517224, 40.55404794709589], [-0.173626968409245, 40.55351302494614], [-0.173895696587435, 40.553066803466365], [-0.174556819122878, 40.55294794003926], [-0.175782692993494, 40.55252513608712], [-0.177725547233281, 40.5526362015735], [-0.178027327586827, 40.55288983843301], [-0.177981111878085, 40.5532461831772], [-0.177199609059891, 40.55375137202723], [-0.174988169674912, 40.55482530636378]]]}}, {"type": "Feature", "properties": {"id": "365358", "elemento": "Partida. LLOCS", "texto_normalizado": "Dena del Muixacre"}, "geometry": {"type": "Polygon", "coordinates": [[[-0.10417317028932, 40.510909135102615], [-0.110215718288778, 40.51212817561477], [-0.116071753271395, 40.510711241194116], [-0.118612284581806, 40.51321501873367], [-0.118109514786084, 40.5167867351084], [-0.118861960715725, 40.52138116792215], [-0.116454891049724, 40.52391394565942], [-0.112807906497466, 40.526225019081366], [-0.112560203854046, 40.53199176261681], [-0.122563749692415, 40.541125897719255], [-0.130570743800107, 40.54323171033838], [-0.125536912258886, 40.547567734880914], [-0.122194369608177, 40.55091618775499], [-0.116644661552684, 40.555597371808815], [-0.113879269899008, 40.559455679899855], [-0.10972257566913, 40.56194453258461], [-0.086192748229103, 40.564975330942495], [-0.071570914480699, 40.55631583771494], [-0.069574478934223, 40.547075834417306], [-0.066677811011155, 40.53957834370474], [-0.067714765161499, 40.523258303519675], [-0.041415459692013, 40.51568581740255], [-0.03409832250528, 40.499207014403446], [-0.034698890538732, 40.48671098887242], [-0.037188480430591, 40.481205502374145], [-0.037425011139842, 40.47526206533254], [-0.034836035256645, 40.46772089989064], [-0.038351403609918, 40.45917481647192], [-0.042619806491154, 40.45278319391754], [-0.041203919705897, 40.43669405825714], [-0.042928284304039, 40.427510670099615], [-0.04311673326825, 40.42171489369142], [-0.047414493649845, 40.428035338687984], [-0.048456119326097, 40.43316192164857], [-0.051550376562032, 40.4408479944255], [-0.0531406645962, 40.45183204826345], [-0.053318249525419, 40.46026351169817], [-0.059775085903893, 40.47003715770169], [-0.064530738023553, 40.478395193056826], [-0.067335850335276, 40.4851791946911], [-0.071975593376944, 40.49353666328738], [-0.081466937384445, 40.506595891203126], [-0.088569964794743, 40.511860845477], [-0.10417317028932, 40.510909135102615]]]}}, {"type": "Feature", "properties": {"id": "372520", "elemento": "Falda, morro. TERRENY PENDENT", "texto_normalizado": "les Costeres"}, "geometry": {"type": "Polygon", "coordinates": [[[-0.166799693453528, 40.55700976389578], [-0.165353117730724, 40.55746459451941], [-0.161509765956927, 40.55368845461534], [-0.160177978143951, 40.553269932667405], [-0.159102060210763, 40.553418126339814], [-0.157054912248941, 40.55289099905526], [-0.157156677388132, 40.55087884957572], [-0.16290133708098, 40.552286397511516], [-0.166189031980999, 40.55427706884688], [-0.166762362361775, 40.55567924242054], [-0.167074157800487, 40.55630456230125], [-0.166799693453528, 40.55700976389578]]]}}, {"type": "Feature", "properties": {"id": "388598", "elemento": "Falda, morro. TERRENY PENDENT", "texto_normalizado": "el Canalís del Mas de Marín"}, "geometry": {"type": "Polygon", "coordinates": [[[-0.180645339540521, 40.56262128847483], [-0.181280628083626, 40.56230315971419], [-0.182047468075142, 40.562769553396166], [-0.182294040449191, 40.56322324393473], [-0.181928062836731, 40.563913370680915], [-0.180856398192726, 40.56371641065898], [-0.180298613049641, 40.563436667104874], [-0.180645339540521, 40.56262128847483]]]}}, {"type": "Feature", "properties": {"id": "379389", "elemento": "Camp, bancal. LLOCS", "texto_normalizado": "la Foia de la Bassa Gran"}, "geometry": {"type": "Polygon", "coordinates": [[[-0.146407106833475, 40.56667462221834], [-0.149529568295427, 40.5653496844605], [-0.151318197968855, 40.56570960604514], [-0.151122514901324, 40.56653788627255], [-0.150699987440424, 40.56682038637557], [-0.149205456792414, 40.56779516707308], [-0.148828216444273, 40.56772511350406], [-0.148241537585202, 40.56820711011883], [-0.148307063865567, 40.56878465685072], [-0.1477505408793, 40.56888865664537], [-0.146471087574922, 40.56835516578459], [-0.146407106833475, 40.56667462221834]]]}}, {"type": "Feature", "properties": {"id": "388852", "elemento": "Camp, bancal. LLOCS", "texto_normalizado": "Feixes dels Llivis"}, "geometry": {"type": "Polygon", "coordinates": [[[-0.114141839369101, 40.5650468890128], [-0.113252104628951, 40.56539005572585], [-0.111953658225834, 40.565548227538066], [-0.112086738969152, 40.564391763043204], [-0.113021833628369, 40.564446929301], [-0.113840257422177, 40.56430851946008], [-0.114141839369101, 40.5650468890128]]]}}, {"type": "Feature", "properties": {"id": "386339", "elemento": "Camp, bancal. LLOCS", "texto_normalizado": "Bancal de la Perera de la Torre Blanca"}, "geometry": {"type": "Polygon", "coordinates": [[[-0.141590271317252, 40.54787212152132], [-0.140887743332748, 40.54847434462696], [-0.140415212860278, 40.549789261154345], [-0.140268414820149, 40.55030197448088], [-0.140183697655809, 40.55082416894385], [-0.140222128251412, 40.55138913304977], [-0.140395805464818, 40.551957447407055], [-0.140586307265507, 40.552375245703494], [-0.140241710662085, 40.55215222604472], [-0.140044791637826, 40.55188520073517], [-0.139881521577268, 40.55131714371578], [-0.139765539232851, 40.550861471626824], [-0.13994869063946, 40.549984243450666], [-0.139877506811426, 40.548965669089625], [-0.140161497440495, 40.54865495173648], [-0.140366723195177, 40.54799275312971], [-0.140984811653796, 40.54692769975328], [-0.141545269692242, 40.54672709455592], [-0.141790544524174, 40.546836437618595], [-0.141765623013799, 40.54717740583423], [-0.141590271317252, 40.54787212152132]]]}}, {"type": "Feature", "properties": {"id": "384289", "elemento": "Pla. TERRENY PLANER", "texto_normalizado": "Pla de la Solaneta"}, "geometry": {"type": "Polygon", "coordinates": [[[-0.147151179365145, 40.516462784890415], [-0.150578568213221, 40.51583246765254], [-0.15127790588738, 40.5170151609575], [-0.147180262621107, 40.51774015399764], [-0.147151179365145, 40.516462784890415]]]}}, {"type": "Feature", "properties": {"id": "387882", "elemento": "Camp, bancal. LLOCS", "texto_normalizado": "els Tollets"}, "geometry": {"type": "Polygon", "coordinates": [[[-0.169282441047218, 40.54963245855064], [-0.171743671179626, 40.54972455795785], [-0.171702001628437, 40.5507142068578], [-0.169178315177606, 40.55062057475349], [-0.169282441047218, 40.54963245855064]]]}}, {"type": "Feature", "properties": {"id": "370181", "elemento": "Ombria. LLOCS", "texto_normalizado": "Ombria de la Giroveta"}, "geometry": {"type": "Polygon", "coordinates": [[[-0.155868374952426, 40.533464434387334], [-0.153322143858127, 40.53433905752833], [-0.151413463300474, 40.53552327868509], [-0.150491469039345, 40.53406268759565], [-0.148204948514124, 40.53200437732749], [-0.150219564178212, 40.52967096227207], [-0.154788225000175, 40.52995840464464], [-0.158660457449798, 40.53095936729781], [-0.158638985719601, 40.53097472583673], [-0.155868374952426, 40.533464434387334]]]}}, {"type": "Feature", "properties": {"id": "391215", "elemento": "Falda, morro. TERRENY PENDENT", "texto_normalizado": "l'Embut"}, "geometry": {"type": "Polygon", "coordinates": [[[-0.17689056028973, 40.56159871068159], [-0.177192771664339, 40.56209067692351], [-0.176825309415104, 40.56240738902685], [-0.176371477593772, 40.56230096291431], [-0.17610561120444, 40.56218324548716], [-0.175978685682937, 40.56198154392901], [-0.175893048551918, 40.561788795804816], [-0.176092358962729, 40.56150769246421], [-0.176523312079511, 40.56141496437044], [-0.176770701344368, 40.56147662196266], [-0.176911704600023, 40.56159128431362], [-0.176890893931933, 40.561590775373986], [-0.17689056028973, 40.56159871068159]]]}}, {"type": "Feature", "properties": {"id": "365362", "elemento": "Partida. LLOCS", "texto_normalizado": "Dena dels Llivis"}, "geometry": {"type": "Polygon", "coordinates": [[[-0.156562137093608, 40.57785801550909], [-0.1545595424655, 40.576633787740896], [-0.153079954594827, 40.57599680486179], [-0.152208226621339, 40.57636693287527], [-0.151214067822119, 40.576394615360535], [-0.149524857044413, 40.57585685148716], [-0.147443904565754, 40.57567490242969], [-0.145082487172712, 40.57645198866736], [-0.142567761449677, 40.57680749670291], [-0.140313560389256, 40.576673344249684], [-0.138900038173365, 40.576899405749195], [-0.137899186650932, 40.577083459728534], [-0.136906416499797, 40.576275585477795], [-0.135932296193975, 40.5758336758549], [-0.13473067897079, 40.57590829168643], [-0.133717591444883, 40.576379198628466], [-0.132913052411994, 40.57677695075148], [-0.13211966172692, 40.57691389297288], [-0.13121695069282, 40.577204764968045], [-0.130446597118649, 40.577603349244804], [-0.129289208186284, 40.5774440291464], [-0.1287887856605, 40.57633502541642], [-0.128833419016344, 40.57529180227415], [-0.128166090101642, 40.57488357013499], [-0.127327742306565, 40.57447107806308], [-0.125648424496973, 40.57450759778888], [-0.124225968834595, 40.5749421233567], [-0.123963065629276, 40.57548384652703], [-0.123940711075396, 40.57600546037763], [-0.123749571908295, 40.576470644997244], [-0.12302233939146, 40.5766613873668], [-0.121839716664335, 40.57629249727852], [-0.120966077838986, 40.57590519085773], [-0.120091318207476, 40.57554396160096], [-0.118950251597633, 40.57532477771941], [-0.118529145677181, 40.57524389325278], [-0.118011498363624, 40.57517920553512], [-0.116962506874377, 40.575048120955614], [-0.115313445886999, 40.574380320586], [-0.114282305009397, 40.573675723598974], [-0.114171281983058, 40.57307245156843], [-0.114366972836079, 40.57250295926498], [-0.115075669123583, 40.57194628953483], [-0.115544948068973, 40.57138363264431], [-0.115507930834591, 40.57065167959442], [-0.114367523818046, 40.570101005042346], [-0.113633049030492, 40.56966490840589], [-0.11241249980495, 40.568590040174186], [-0.111863638625265, 40.567819168841346], [-0.111175754681108, 40.56709703007794], [-0.110920121147995, 40.56667289028207], [-0.111381538685199, 40.56629281695563], [-0.111982573472715, 40.56505464835158], [-0.111957935776525, 40.564035811091735], [-0.112229846880695, 40.56328546479355], [-0.112836999063136, 40.56270016437168], [-0.113472735793521, 40.5622461069013], [-0.114322600939386, 40.56158854131609], [-0.115546367659929, 40.56099251833482], [-0.117303212535389, 40.55993985675479], [-0.118101413804553, 40.55888934135866], [-0.118138350850372, 40.55802868438859], [-0.118553663240046, 40.55712524923003], [-0.11920048428872, 40.55641035425166], [-0.119914568668126, 40.55572324539818], [-0.121242996053796, 40.55507756567908], [-0.122715036100909, 40.55480272601969], [-0.12379676920587, 40.55459293885609], [-0.124604434787863, 40.55411699889544], [-0.125599793944033, 40.55325410421183], [-0.126085587157288, 40.55230018051525], [-0.126298949086889, 40.55131337031744], [-0.126408625613223, 40.550350081397255], [-0.12675761553108, 40.54939275779637], [-0.127782984013273, 40.54782565211607], [-0.128780435609659, 40.54691055645558], [-0.130026091424397, 40.5457927549939], [-0.133125989272352, 40.543728877772445], [-0.134409042246505, 40.542533629404645], [-0.134982344066564, 40.54170161473392], [-0.133482781045827, 40.541701320097026], [-0.129592111446224, 40.541700468275394], [-0.12334098795063, 40.54169881521073], [-0.123126520565788, 40.5415399796361], [-0.122729976277497, 40.54129725266117], [-0.121972224324382, 40.540936866564635], [-0.121537027198469, 40.540646604826286], [-0.120869609499563, 40.540552347113824], [-0.120276866510044, 40.54061517794181], [-0.119568144871718, 40.540535410774645], [-0.119121936095615, 40.54002754917136], [-0.118434794814487, 40.53897037765457], [-0.117232831989904, 40.537108689338545], [-0.116406509467608, 40.53645162395726], [-0.115982012707452, 40.53591324496285], [-0.114819212655705, 40.53551164557492], [-0.11385633462859, 40.53519264744513], [-0.114163476064021, 40.53372567063415], [-0.113815845187868, 40.52902912261618], [-0.114001681614935, 40.52754358391326], [-0.114107685177016, 40.525868429425], [-0.115377055091026, 40.52535820693913], [-0.117400088922904, 40.52514485049201], [-0.119268126416186, 40.52427563256459], [-0.120538080182274, 40.522646376041735], [-0.120928674642344, 40.52160057213078], [-0.120280585138431, 40.52010974195806], [-0.119044227500813, 40.518107511096076], [-0.118590742833147, 40.51682332434137], [-0.117562695208169, 40.51518330350327], [-0.117128169416222, 40.51298374081546], [-0.116642385304754, 40.511031269821196], [-0.116042508431493, 40.51031776146698], [-0.115888910875901, 40.50963092656628], [-0.116131010053334, 40.50940874890293], [-0.116333491589474, 40.509222916169826], [-0.117036800240239, 40.5087196368061], [-0.117073779147844, 40.50855839430424], [-0.117094379688823, 40.50807770750361], [-0.116808254396763, 40.50763592042407], [-0.116625714651525, 40.50715016110229], [-0.117439255687187, 40.50667374383179], [-0.117651329190112, 40.50599603901447], [-0.117514058072216, 40.5054027479632], [-0.117612868086088, 40.50452040892786], [-0.118245818697968, 40.50351170850252], [-0.118762835174815, 40.502360400568314], [-0.118758336431044, 40.501040847814295], [-0.119200184830259, 40.500694852816345], [-0.120384311134284, 40.50058467757035], [-0.122220868302674, 40.50090987601963], [-0.123166977402386, 40.50113524900081], [-0.12443170366301, 40.5010425686688], [-0.125321944678059, 40.50162355222383], [-0.125730645543091, 40.50205284151724], [-0.127138033781529, 40.50242937438804], [-0.128119053589999, 40.50231406645943], [-0.129315780677103, 40.50190918918837], [-0.130186142537011, 40.501527227554455], [-0.131678945782134, 40.501331481561316], [-0.133177528060895, 40.5014773510135], [-0.135466208686107, 40.502170583115735], [-0.13642296239193, 40.502701180774665], [-0.137911800407708, 40.50382835917754], [-0.138321710879617, 40.50409014940669], [-0.139674472348189, 40.50508745957479], [-0.140206914617577, 40.50563815291352], [-0.140438224655328, 40.506236621868524], [-0.140890095045141, 40.5075672550617], [-0.141757407364688, 40.50917204694385], [-0.1422368675293, 40.51033260750887], [-0.142195921583251, 40.51177522002823], [-0.142292588951727, 40.512209129396055], [-0.142235389843448, 40.51259373683167], [-0.142281489467506, 40.51299678872933], [-0.142792946700073, 40.51336875541246], [-0.144398416930704, 40.514204694629825], [-0.145821242808099, 40.5149080925253], [-0.147456315420528, 40.51576764121694], [-0.148201457131728, 40.51591042859557], [-0.148635369066598, 40.51578337730571], [-0.149032456972394, 40.51554551689365], [-0.150613370051156, 40.5151964640214], [-0.151163729270715, 40.515089246348055], [-0.151989095394302, 40.515370116873015], [-0.152119601870624, 40.51568981076518], [-0.152537853066057, 40.516227353356], [-0.153389578739486, 40.517271042620635], [-0.154094674551045, 40.517946215624995], [-0.155508357773181, 40.51911896342887], [-0.15717769948679, 40.520155000003115], [-0.158178979970257, 40.52027598466203], [-0.159181605608657, 40.52036521798136], [-0.15990479457418, 40.52045922119764], [-0.160705813961826, 40.520682236919306], [-0.161068179483836, 40.52088851496082], [-0.161262154181106, 40.52113831649026], [-0.161441862000745, 40.52135804933892], [-0.161260019245136, 40.52166452509532], [-0.160410927141915, 40.522161061933836], [-0.160034069601967, 40.52246754744057], [-0.159718494774378, 40.52271751725352], [-0.159844483476888, 40.523197941892285], [-0.160157995503353, 40.52367503536555], [-0.160951100598429, 40.52391422835473], [-0.16195654113074, 40.523727677426244], [-0.162774014658515, 40.52331366675173], [-0.163488567082173, 40.522583597406985], [-0.164197037661823, 40.522036534699076], [-0.164636705780878, 40.521965561899535], [-0.165134493835089, 40.52219264125581], [-0.165314267481937, 40.522622889987296], [-0.165025624392511, 40.523233778906295], [-0.164148182403407, 40.52414291774797], [-0.162841158775479, 40.52518688027498], [-0.161934641891988, 40.52611356996763], [-0.161396833055912, 40.52674496211099], [-0.161244692708238, 40.52732464580491], [-0.161197365678741, 40.52804996027313], [-0.16161838767112, 40.528593574276705], [-0.163101654570649, 40.529190156366255], [-0.163683805131638, 40.52935567530588], [-0.164258570784835, 40.52987479009907], [-0.164364553768553, 40.5304749731743], [-0.164007877213789, 40.53093668951051], [-0.163232133489576, 40.53113869835717], [-0.161456878426891, 40.53223791149449], [-0.160911771206532, 40.532704418255385], [-0.16028821482765, 40.53320209350342], [-0.160188384390854, 40.533871526237625], [-0.16049740764193, 40.53431125787502], [-0.160981280231929, 40.53469201172037], [-0.161683907533606, 40.535278788609574], [-0.162161173207723, 40.53567566923283], [-0.162216036765995, 40.536101161145005], [-0.162190547252921, 40.5363971760903], [-0.162075032238508, 40.53661289714127], [-0.162077167590812, 40.537061356616995], [-0.161981299344571, 40.537524682851114], [-0.162355246685759, 40.538425950688925], [-0.162643349247417, 40.539463359520106], [-0.162600982531152, 40.54019576787248], [-0.162488511732233, 40.54069069797262], [-0.162242296513549, 40.541703579680004], [-0.16229195750149, 40.542350987696935], [-0.161285364970475, 40.543089918734765], [-0.158974333302136, 40.54432545297631], [-0.15690724560499, 40.545253640821265], [-0.15584592371612, 40.546676525059915], [-0.156073271923642, 40.54918855340278], [-0.156851651129651, 40.55020638233828], [-0.158231444118747, 40.55096486884007], [-0.160824836585469, 40.55095035270205], [-0.163933508537991, 40.54967564622886], [-0.166052697524781, 40.54812200678489], [-0.167211383957302, 40.54621187346374], [-0.168054061021513, 40.5444897932407], [-0.169211984325571, 40.54381325862595], [-0.17051817807915, 40.544491467106695], [-0.171395172968067, 40.545609525442], [-0.172549333219941, 40.54685184706447], [-0.17253122025652, 40.54728220132654], [-0.171777789902666, 40.54810575090666], [-0.17026255716215, 40.549341413408435], [-0.169551389390544, 40.55098840626785], [-0.168333059677354, 40.55248589219865], [-0.16857318469775, 40.55409746294103], [-0.169244014378872, 40.554609023241284], [-0.169369113007791, 40.55470442374731], [-0.170174445481406, 40.55494812332808], [-0.170636582180974, 40.555087965869674], [-0.17180312795948, 40.5554298492627], [-0.173816584473912, 40.554558828523234], [-0.174391368424021, 40.553711312533565], [-0.175156482122915, 40.5532209217599], [-0.17653132507196, 40.552882503013855], [-0.177007071796389, 40.5531682817955], [-0.176621728102591, 40.553785463979686], [-0.175016190752131, 40.554725262471024], [-0.174112948257419, 40.555447251326086], [-0.173793791295029, 40.55632060580754], [-0.174220174925178, 40.55778007155431], [-0.17423373561531, 40.559288185134704], [-0.174699773351431, 40.560415730693826], [-0.17662354533252, 40.5610698309175], [-0.178831792677363, 40.56106507408971], [-0.180566687400345, 40.56071582579525], [-0.181704255765192, 40.56052820509636], [-0.182472065773914, 40.56058611119957], [-0.183434613366008, 40.56151035016111], [-0.184022885621099, 40.56255076027678], [-0.184175594998495, 40.56282081106893], [-0.184612734038056, 40.565866602103334], [-0.184546064775549, 40.56684405223028], [-0.183496241720733, 40.56983399631097], [-0.182959174261887, 40.57222941136533], [-0.183042891921837, 40.57512950713204], [-0.18258745228241, 40.57680239751488], [-0.18241636291168, 40.577203960075714], [-0.182112485254905, 40.57791711862385], [-0.182017685824942, 40.578139615147954], [-0.181214982618599, 40.57829624155614], [-0.179620894637871, 40.57772860635604], [-0.177716517971266, 40.57721210792241], [-0.175180118266822, 40.57767875890514], [-0.173617752401034, 40.578188790000965], [-0.172377253944137, 40.57837380608064], [-0.169803306989173, 40.578105115811745], [-0.168236399754604, 40.577910041413254], [-0.166725811291953, 40.57800351338863], [-0.164616122983134, 40.57930935332435], [-0.163264405130679, 40.57969387605268], [-0.15974219152848, 40.5787717890703], [-0.156562137093608, 40.57785801550909]]]}}, {"type": "Feature", "properties": {"id": "382906", "elemento": "Fondo, foia. DEPRESSIONS DE LA SUPERFÍCIE TERRESTRE", "texto_normalizado": "Foieta de Casa"}, "geometry": {"type": "Polygon", "coordinates": [[[-0.175614427829645, 40.56705153492507], [-0.175900969228646, 40.56614301642522], [-0.175671607415833, 40.56536486428087], [-0.176459259824395, 40.56538016079873], [-0.176832673652386, 40.566000971167306], [-0.177002318904674, 40.56709129817287], [-0.177508848046451, 40.56760201671168], [-0.177000478319654, 40.56814139418675], [-0.177006092384193, 40.568689078987596], [-0.177662401210474, 40.569307703798636], [-0.178234780134908, 40.56940113621359], [-0.178713455167104, 40.569248000909234], [-0.178585351359876, 40.5696519931571], [-0.178050301945763, 40.56965877325915], [-0.177554167796574, 40.56940038344881], [-0.177386538194613, 40.56958693753796], [-0.176513268453879, 40.56900553925882], [-0.176379366338475, 40.56845215123918], [-0.1761086876508, 40.56831346338767], [-0.175761328966167, 40.56882677727042], [-0.175210292085775, 40.568891490972085], [-0.17483566630186, 40.5685560042046], [-0.174292150887371, 40.568188889372706], [-0.174517004706378, 40.56783875094424], [-0.175242795338685, 40.56796161462454], [-0.175614427829645, 40.56705153492507]]]}}, {"type": "Feature", "properties": {"id": "391205", "elemento": "Camp, bancal. LLOCS", "texto_normalizado": "Bancal del Centeno"}, "geometry": {"type": "Polygon", "coordinates": [[[-0.15937508222678, 40.53521737855575], [-0.1577693049284, 40.53478066479411], [-0.156508455020895, 40.53431270540334], [-0.156746338599582, 40.534104079397245], [-0.156975157237357, 40.53410971427992], [-0.157447889615156, 40.534256400617956], [-0.158052815983858, 40.534477833132215], [-0.15867485808328, 40.53478706646082], [-0.159147599257926, 40.5349337461056], [-0.15937508222678, 40.53521737855575]]]}}, {"type": "Feature", "properties": {"id": "384946", "elemento": "Camp, bancal. LLOCS", "texto_normalizado": "la Pedregosa de la Torre Montserrat"}, "geometry": {"type": "Polygon", "coordinates": [[[-0.144195447333458, 40.561362013866095], [-0.146206301897905, 40.56131244592056], [-0.146470375865296, 40.561680418803235], [-0.147188996657733, 40.561927394612006], [-0.147486166669721, 40.56179741843873], [-0.147723510376188, 40.56209492950238], [-0.147614259228234, 40.56221478080925], [-0.146969911937901, 40.5625841331709], [-0.145882805287693, 40.56307758011273], [-0.143211800635196, 40.56171384969564], [-0.14338144821284, 40.56158229992112], [-0.143734333341609, 40.56155060875374], [-0.144195447333458, 40.561362013866095]]]}}, {"type": "Feature", "properties": {"id": "404092", "elemento": "Camp, bancal. LLOCS", "texto_normalizado": "la Puntassa"}, "geometry": {"type": "Polygon", "coordinates": [[[-0.16475845525247, 40.52291435085256], [-0.163262040300538, 40.52359254556585], [-0.16338310863992, 40.523190381201054], [-0.164306893247165, 40.522514011287704], [-0.16475845525247, 40.52291435085256]]]}}, {"type": "Feature", "properties": {"id": "389727", "elemento": "Fondo, foia. DEPRESSIONS DE LA SUPERFÍCIE TERRESTRE", "texto_normalizado": "Foia del Pou"}, "geometry": {"type": "Polygon", "coordinates": [[[-0.142316604223151, 40.552584911819736], [-0.141928296256148, 40.55265473674557], [-0.141698132528704, 40.55243455536638], [-0.142072302812337, 40.55122841162913], [-0.142510504529558, 40.55023039163343], [-0.142889070246912, 40.55014443569021], [-0.142873759707962, 40.550994047412225], [-0.142316604223151, 40.552584911819736]]]}}, {"type": "Feature", "properties": {"id": "384804", "elemento": "Paratge. LLOCS", "texto_normalizado": "el Cantalar"}, "geometry": {"type": "Polygon", "coordinates": [[[-0.145303275346352, 40.55493233364061], [-0.144897913683144, 40.55466810604622], [-0.145072472111042, 40.55448177070126], [-0.14531215027897, 40.55423349520298], [-0.145814232516733, 40.55418235888519], [-0.146204183583317, 40.554319100937775], [-0.146621591819278, 40.55479016203695], [-0.147102777554405, 40.55523102225788], [-0.147664505308561, 40.55573742084938], [-0.148035682984893, 40.55582602956866], [-0.148899601031593, 40.55559316699129], [-0.149640685896402, 40.555309602543865], [-0.150534827928597, 40.554855045651976], [-0.150593212046331, 40.554951812623194], [-0.150323312452167, 40.55542178139005], [-0.149199519317669, 40.55637907013144], [-0.147837537028962, 40.556567855469375], [-0.14690260074221, 40.556020458787735], [-0.145303275346352, 40.55493233364061]]]}}, {"type": "Feature", "properties": {"id": "398992", "elemento": "Bosc. LLOCS", "texto_normalizado": "Carrascal de Guardiola"}, "geometry": {"type": "Polygon", "coordinates": [[[-0.150739225182158, 40.548720725792286], [-0.152684068184008, 40.547723168014656], [-0.154353865304877, 40.54912685927913], [-0.156052923537279, 40.550183684643486], [-0.154954680491832, 40.552276535636665], [-0.153023491122213, 40.5523328577677], [-0.152163232893504, 40.55105225583195], [-0.1502964147357, 40.55107448892809], [-0.150739225182158, 40.548720725792286]]]}}, {"type": "Feature", "properties": {"id": "376251", "elemento": "Ombria. LLOCS", "texto_normalizado": "Ombria de Donís"}, "geometry": {"type": "Polygon", "coordinates": [[[-0.105712363144797, 40.554537430455476], [-0.107140531296503, 40.554747992243456], [-0.107039527195862, 40.55515853847906], [-0.105976305485748, 40.555179551194364], [-0.105372211954401, 40.55518029250323], [-0.105398777628416, 40.55553048521432], [-0.105750053797482, 40.55607947104019], [-0.10564972398332, 40.556474145103465], [-0.104744328304526, 40.557182268604365], [-0.104156233185816, 40.557294617540286], [-0.103832205429178, 40.55707995027691], [-0.104209891158443, 40.556533359982716], [-0.104523780316187, 40.55601694354416], [-0.104048353204273, 40.555448951863255], [-0.103315578035951, 40.5560184072379], [-0.102568144259828, 40.5564445006947], [-0.102106691638076, 40.55603572786944], [-0.101468252314996, 40.55538419584362], [-0.100522517718691, 40.55461372934836], [-0.099391600527097, 40.55379093917861], [-0.098889016838408, 40.552888605542904], [-0.099868289011571, 40.55288143657661], [-0.101369351991066, 40.553332215225495], [-0.102874542612201, 40.55368775191478], [-0.104470503698689, 40.55387078307546], [-0.105712363144797, 40.554537430455476]]]}}, {"type": "Feature", "properties": {"id": "382359", "elemento": "Bosc. LLOCS", "texto_normalizado": "Bosc de la Giroveta"}, "geometry": {"type": "Polygon", "coordinates": [[[-0.158882893774723, 40.53897860567447], [-0.158113180549372, 40.53846714165724], [-0.157998434809087, 40.5377334807542], [-0.159569048560091, 40.53777213320646], [-0.161235958988848, 40.53774958159234], [-0.16104910328408, 40.53872208294943], [-0.160236812265739, 40.54044975692351], [-0.157954116103677, 40.5402585394725], [-0.158882893774723, 40.53897860567447]]]}}, {"type": "Feature", "properties": {"id": "397606", "elemento": "Camp, bancal. LLOCS", "texto_normalizado": "el Parral de Montserrat"}, "geometry": {"type": "Polygon", "coordinates": [[[-0.14206612088149, 40.55645755014475], [-0.143009868783957, 40.55648091093133], [-0.142979245062614, 40.55720072775841], [-0.142035487077807, 40.557177366381616], [-0.14206612088149, 40.55645755014475]]]}}, {"type": "Feature", "properties": {"id": "386695", "elemento": "Camp, bancal. LLOCS", "texto_normalizado": "el Pla del Mas Nou"}, "geometry": {"type": "Polygon", "coordinates": [[[-0.120025113661719, 40.55708002492029], [-0.119444136598097, 40.55739122489149], [-0.117748613889832, 40.558675518498745], [-0.117638255334293, 40.55857743666336], [-0.117818006747599, 40.55827211665084], [-0.117438840934181, 40.55812760481347], [-0.11743593130559, 40.557952768196074], [-0.118239517514362, 40.55670182350589], [-0.118840143028512, 40.55581122129349], [-0.118963287809276, 40.555854014524435], [-0.119072963326989, 40.555967964877155], [-0.120025113661719, 40.55708002492029]]]}}, {"type": "Feature", "properties": {"id": "385098", "elemento": "Camp, bancal. LLOCS", "texto_normalizado": "els Plans del Mas de Guardiola"}, "geometry": {"type": "Polygon", "coordinates": [[[-0.158307048433573, 40.55700651118536], [-0.159262224600338, 40.55749870740936], [-0.159302205707139, 40.55852329050217], [-0.159459878929164, 40.558796972152585], [-0.160089460442695, 40.55948740083999], [-0.159928882398737, 40.55946698333184], [-0.159028207435869, 40.559127067447044], [-0.158607417434074, 40.558505034525], [-0.157999696313269, 40.558349071228655], [-0.157152978010747, 40.5589180526624], [-0.157161944428011, 40.55822318699077], [-0.15694208206291, 40.55763505693275], [-0.156510906583258, 40.55690282963193], [-0.156603289216306, 40.55659657700806], [-0.158307048433573, 40.55700651118536]]]}}, {"type": "Feature", "properties": {"id": "387428", "elemento": "Camp, bancal. LLOCS", "texto_normalizado": "el Pla del Campello"}, "geometry": {"type": "Polygon", "coordinates": [[[-0.122470412036088, 40.550890814222704], [-0.121395228926733, 40.55022055919054], [-0.121389386086888, 40.549870885922616], [-0.121462686198122, 40.549618511652575], [-0.121284694763746, 40.54866875941305], [-0.121526879450781, 40.5488495617862], [-0.1216824432038, 40.54910764266667], [-0.121830050777631, 40.5497944912987], [-0.121906951363592, 40.54970108301086], [-0.1216659936887, 40.54851939054413], [-0.121944351585222, 40.548828195006706], [-0.122020363753382, 40.54972774163861], [-0.122120992714828, 40.54980968901883], [-0.122242564694101, 40.54964589883831], [-0.122071021660585, 40.54854537624429], [-0.12232293167274, 40.54874230715636], [-0.122326195017204, 40.5489092084674], [-0.122383717045372, 40.54926811432304], [-0.122550298180856, 40.549026008810884], [-0.122651535531621, 40.548607509182965], [-0.122800572912943, 40.54853178597309], [-0.122913511097566, 40.54881263402386], [-0.123176390504004, 40.55045561219804], [-0.122470412036088, 40.550890814222704]]]}}, {"type": "Feature", "properties": {"id": "383853", "elemento": "Solana. LLOCS", "texto_normalizado": "Solà de Modest"}, "geometry": {"type": "Polygon", "coordinates": [[[-0.136902433415825, 40.555914268281505], [-0.135692020762378, 40.555479105628855], [-0.134530596188335, 40.555116641753976], [-0.13279746765762, 40.55350867455533], [-0.132930780695323, 40.55331338999777], [-0.133529203996463, 40.55320114980218], [-0.134655315676152, 40.55365807357441], [-0.135324356361165, 40.55408775715664], [-0.136901836545889, 40.554706791641834], [-0.137664537664252, 40.55513878472308], [-0.137342528850113, 40.555607429256526], [-0.136902433415825, 40.555914268281505]]]}}, {"type": "Feature", "properties": {"id": "384749", "elemento": "Camp, bancal. LLOCS", "texto_normalizado": "Rotes del Garro"}, "geometry": {"type": "Polygon", "coordinates": [[[-0.127649438570718, 40.55220024538788], [-0.127230572018428, 40.55298420441299], [-0.126412381219811, 40.55433812069223], [-0.126113484502565, 40.55475170188939], [-0.125439530739827, 40.55419474196925], [-0.124226900887856, 40.55308418055524], [-0.126024138193702, 40.55221540014163], [-0.12695173400452, 40.552198770857416], [-0.127649438570718, 40.55220024538788]]]}}, {"type": "Feature", "properties": {"id": "389118", "elemento": "Camp, bancal. LLOCS", "texto_normalizado": "la Foieteta de la Rambla"}, "geometry": {"type": "Polygon", "coordinates": [[[-0.17903599841814, 40.56629091211409], [-0.179834609260364, 40.56678755325852], [-0.180078087481461, 40.566777862170206], [-0.180064486491089, 40.56693665501754], [-0.180850577456003, 40.56740170490083], [-0.182059584687578, 40.5673061094983], [-0.183661914114865, 40.56719030865264], [-0.183467458959307, 40.567604274781026], [-0.182545483790016, 40.567518224907516], [-0.18090389101747, 40.56770057386437], [-0.180428558118103, 40.567578039635215], [-0.179898445281161, 40.567287199299955], [-0.179261609982685, 40.56705730005618], [-0.178593524980886, 40.56653314421492], [-0.17903599841814, 40.56629091211409]]]}}, {"type": "Feature", "properties": {"id": "378560", "elemento": "Camp, bancal. LLOCS", "texto_normalizado": "el Pla del Mas de Marín"}, "geometry": {"type": "Polygon", "coordinates": [[[-0.184490810492085, 40.56034096329607], [-0.186252496139759, 40.56089232462447], [-0.186831721330823, 40.562320450755315], [-0.187248985210942, 40.56354884651052], [-0.187186730066562, 40.564288924491706], [-0.186085751417098, 40.56602563119778], [-0.184846194822708, 40.562298694077136], [-0.183039780851451, 40.56091467781167], [-0.182550642462837, 40.55978790882256], [-0.184490810492085, 40.56034096329607]]]}}, {"type": "Feature", "properties": {"id": "389981", "elemento": "Fondo, foia. DEPRESSIONS DE LA SUPERFÍCIE TERRESTRE", "texto_normalizado": "Foia de Guardiola"}, "geometry": {"type": "Polygon", "coordinates": [[[-0.159159636292206, 40.556108455538585], [-0.159587715720586, 40.55617062402679], [-0.160210793619933, 40.556301139266886], [-0.160617121551093, 40.55691370992717], [-0.160174315938763, 40.55741006740204], [-0.159385602748988, 40.55692197497336], [-0.15866866281762, 40.556635396568616], [-0.158656896039778, 40.55642120207418], [-0.159159636292206, 40.556108455538585]]]}}, {"type": "Feature", "properties": {"id": "401142", "elemento": "Bosc. LLOCS", "texto_normalizado": "Rourera del Mas Nou"}, "geometry": {"type": "Polygon", "coordinates": [[[-0.120049365199198, 40.55705860476223], [-0.120993103331087, 40.55708214567999], [-0.120962243156889, 40.55780194854379], [-0.120018494943134, 40.55777840703127], [-0.120049365199198, 40.55705860476223]]]}}, {"type": "Feature", "properties": {"id": "386568", "elemento": "Camp, bancal. LLOCS", "texto_normalizado": "les Serveres de Cardona"}, "geometry": {"type": "Polygon", "coordinates": [[[-0.151983248048746, 40.55108296985898], [-0.152606030768287, 40.55185101221781], [-0.152983176790757, 40.552517666799424], [-0.154090668791298, 40.55239801388314], [-0.153676195819133, 40.553577058565935], [-0.153002780539803, 40.5534497353438], [-0.152307267525232, 40.552861119598646], [-0.151851191617695, 40.552231241117845], [-0.15140006214983, 40.551888455024965], [-0.150603130220522, 40.5516662190986], [-0.150273114259035, 40.55138003874561], [-0.151983248048746, 40.55108296985898]]]}}, {"type": "Feature", "properties": {"id": "386344", "elemento": "Bosc. LLOCS", "texto_normalizado": "Bosc de Modest"}, "geometry": {"type": "Polygon", "coordinates": [[[-0.138008667855979, 40.55555098640637], [-0.137694142457549, 40.555396724198985], [-0.137500825435803, 40.555086589140835], [-0.137873256778998, 40.5547393446436], [-0.139260813368489, 40.55509347826161], [-0.139660889857402, 40.55528014178406], [-0.139952872692707, 40.55555945252003], [-0.13879524476453, 40.55632958927275], [-0.138488402917798, 40.556442330309736], [-0.138037203214796, 40.55674095404562], [-0.136997051008115, 40.55704880183574], [-0.137099305622652, 40.55623825274233], [-0.138008667855979, 40.55555098640637]]]}}, {"type": "Feature", "properties": {"id": "403968", "elemento": "Devesa. LLOCS", "texto_normalizado": "Deveseta de Planet"}, "geometry": {"type": "Polygon", "coordinates": [[[-0.121197736754433, 40.555965366147966], [-0.121137013875563, 40.55592413293855], [-0.121217665948661, 40.55574343586448], [-0.121517476693018, 40.55555231693443], [-0.121809741410851, 40.555051200576656], [-0.122148240227127, 40.55468628129552], [-0.122402688536072, 40.55458141025768], [-0.122896151992457, 40.554975013893625], [-0.121886711428267, 40.55544236677005], [-0.121197736754433, 40.555965366147966]]]}}, {"type": "Feature", "properties": {"id": "381353", "elemento": "Camp, bancal. LLOCS", "texto_normalizado": "el Pla de la Basseta"}, "geometry": {"type": "Polygon", "coordinates": [[[-0.105417676243589, 40.55867360263731], [-0.105019098528382, 40.558496788011425], [-0.104196487919801, 40.55849204247283], [-0.101647398318222, 40.558912637518134], [-0.101508098018544, 40.55815845217963], [-0.104026735413005, 40.5575980789232], [-0.105856235182786, 40.55671453886612], [-0.106347510654316, 40.55764039040473], [-0.106800111304435, 40.55825546372084], [-0.10730918479946, 40.55876868092404], [-0.107438153387369, 40.55897845088672], [-0.107379162294244, 40.559199398533224], [-0.107154103190485, 40.559225534014], [-0.107195571388224, 40.55898825967371], [-0.106528041116078, 40.55852667667991], [-0.105417676243589, 40.55867360263731]]]}}, {"type": "Feature", "properties": {"id": "388477", "elemento": "Camp, bancal. LLOCS", "texto_normalizado": "Feixes de la Torre Segura"}, "geometry": {"type": "Polygon", "coordinates": [[[-0.145721294626157, 40.53790723768899], [-0.144794126572912, 40.538408605760026], [-0.143989105000838, 40.537260666184416], [-0.144046329980069, 40.53640414603964], [-0.14466004490302, 40.53617306631813], [-0.145721294626157, 40.53790723768899]]]}}, {"type": "Feature", "properties": {"id": "373158", "elemento": "Falda, morro. TERRENY PENDENT", "texto_normalizado": "Costa del Mas de Puig"}, "geometry": {"type": "Polygon", "coordinates": [[[-0.168172777239914, 40.52903913015028], [-0.168995853590191, 40.52823587222255], [-0.169670160390973, 40.528670268555324], [-0.170307643029215, 40.52921437653115], [-0.170312432289633, 40.52986588019746], [-0.169804449583827, 40.53083665127984], [-0.168500732753253, 40.53195997287896], [-0.167938638261811, 40.53230261195014], [-0.167118546308897, 40.53265119494206], [-0.166314025288615, 40.533012458065876], [-0.16554742169268, 40.53362043592069], [-0.164425736772884, 40.53424427787926], [-0.163418765223528, 40.53482176565948], [-0.162995659745517, 40.534159984308936], [-0.162766697522646, 40.5334784008511], [-0.162326484074367, 40.53284077738702], [-0.162266237452371, 40.532359967516754], [-0.162543393582341, 40.53189975411186], [-0.16332506372806, 40.53131673810258], [-0.164061588579845, 40.53103986271482], [-0.16492007097669, 40.53054475950038], [-0.165483765002956, 40.53054630507382], [-0.166273249599331, 40.530541103999965], [-0.167148357500634, 40.530415094567196], [-0.16779814141919, 40.52990255384707], [-0.168172777239914, 40.52903913015028]]]}}, {"type": "Feature", "properties": {"id": "386749", "elemento": "Fondo, foia. DEPRESSIONS DE LA SUPERFÍCIE TERRESTRE", "texto_normalizado": "Foia Alta"}, "geometry": {"type": "Polygon", "coordinates": [[[-0.146183561951313, 40.550594426551584], [-0.147374834668655, 40.54911453887226], [-0.148375748016767, 40.549909820665015], [-0.148937243667629, 40.550175578223474], [-0.148399482440343, 40.55110364184637], [-0.148004152029232, 40.551129622723444], [-0.147025365703631, 40.55100332480348], [-0.146183561951313, 40.550594426551584]]]}}, {"type": "Feature", "properties": {"id": "390563", "elemento": "Camp, bancal. LLOCS", "texto_normalizado": "el Guardat"}, "geometry": {"type": "Polygon", "coordinates": [[[-0.184207439946349, 40.563230215108284], [-0.184313429588604, 40.56307392284157], [-0.184503648252116, 40.56375406749647], [-0.184680743144015, 40.56400205650345], [-0.184083853059634, 40.564237730122755], [-0.183232388398227, 40.56408588254846], [-0.183122288103266, 40.5637308504186], [-0.183581413803884, 40.56321494304812], [-0.184207439946349, 40.563230215108284]]]}}, {"type": "Feature", "properties": {"id": "387448", "elemento": "Camp, bancal. LLOCS", "texto_normalizado": "els Prats"}, "geometry": {"type": "Polygon", "coordinates": [[[-0.16906062901558, 40.554018005886746], [-0.170192718329727, 40.55451445028001], [-0.170778181191415, 40.55470871767111], [-0.171441439133259, 40.55528151892627], [-0.170636853828435, 40.55562721945253], [-0.170023027460572, 40.555496987260206], [-0.169524019219893, 40.55560788366804], [-0.169468644066783, 40.55532451802394], [-0.169218635178456, 40.55521114595082], [-0.169016878665672, 40.5549323825711], [-0.168560741836754, 40.554758593814746], [-0.168440156475885, 40.55416034008713], [-0.168206158361465, 40.55378190143083], [-0.16906062901558, 40.554018005886746]]]}}, {"type": "Feature", "properties": {"id": "389819", "elemento": "Bosc. LLOCS", "texto_normalizado": "Carrascal de Marinet"}, "geometry": {"type": "Polygon", "coordinates": [[[-0.160297825691855, 40.55531133456622], [-0.161684948145951, 40.55617955239717], [-0.163581987712119, 40.55713062208851], [-0.163594130971741, 40.55733630373327], [-0.161339709512251, 40.55653416742709], [-0.159946819723842, 40.55560738102411], [-0.160297825691855, 40.55531133456622]]]}}, {"type": "Feature", "properties": {"id": "397709", "elemento": "Fondo, foia. DEPRESSIONS DE LA SUPERFÍCIE TERRESTRE", "texto_normalizado": "Foia dels Llivis"}, "geometry": {"type": "Polygon", "coordinates": [[[-0.120565885490195, 40.56476728174428], [-0.121509732315606, 40.56479082211083], [-0.121478869284026, 40.56551062433913], [-0.120535012372832, 40.56548708337787], [-0.120565885490195, 40.56476728174428]]]}}, {"type": "Feature", "properties": {"id": "391388", "elemento": "Paratge. LLOCS", "texto_normalizado": "Albereda de la Torre Segura"}, "geometry": {"type": "Polygon", "coordinates": [[[-0.129513883201319, 40.54501949432838], [-0.130139139273324, 40.544764947356896], [-0.130334070984645, 40.54483334142349], [-0.130486375722241, 40.54492450863092], [-0.130581250345082, 40.54514135036291], [-0.130420471300199, 40.54524856749968], [-0.13001332046202, 40.54551648177989], [-0.129535584404576, 40.54575120356798], [-0.128995485392958, 40.545738233220824], [-0.129060259655055, 40.54527830625442], [-0.129513883201319, 40.54501949432838]]]}}, {"type": "Feature", "properties": {"id": "390115", "elemento": "Camp, bancal. LLOCS", "texto_normalizado": "Bancal de la Font del Mas de Marín"}, "geometry": {"type": "Polygon", "coordinates": [[[-0.177372951010886, 40.57113746039866], [-0.17791102134111, 40.57094010449854], [-0.178407498745635, 40.571020261142664], [-0.179102773380727, 40.57132770077525], [-0.179537103451523, 40.571394914476635], [-0.179842385192028, 40.57155827108047], [-0.179918718287921, 40.57171603460411], [-0.180028764634746, 40.572320141772195], [-0.178844937089478, 40.571806640451804], [-0.177372951010886, 40.57113746039866]]]}}, {"type": "Feature", "properties": {"id": "390771", "elemento": "Devesa. LLOCS", "texto_normalizado": "Devesa del Mas Gran"}, "geometry": {"type": "Polygon", "coordinates": [[[-0.116109747111531, 40.545633751029776], [-0.116052103564156, 40.54552109685566], [-0.115444685540909, 40.54560124741583], [-0.115483046956969, 40.545435385160566], [-0.115632426488188, 40.54535173633364], [-0.116269684580186, 40.54530410563325], [-0.116874869467318, 40.54503324383588], [-0.117792454609087, 40.5447622353071], [-0.118186713360273, 40.54479590900703], [-0.118084924468096, 40.54498402002836], [-0.117627606912762, 40.545449231352755], [-0.117118918973094, 40.545412698206384], [-0.116819483936582, 40.54559587130479], [-0.116621841775575, 40.54559093503787], [-0.116109747111531, 40.545633751029776]]]}}, {"type": "Feature", "properties": {"id": "381472", "elemento": "Camp, bancal. LLOCS", "texto_normalizado": "el Pla de la Torre Segura"}, "geometry": {"type": "Polygon", "coordinates": [[[-0.12749032698109, 40.546394117797455], [-0.125238247012104, 40.54524181054413], [-0.125785424436673, 40.544135355516445], [-0.13051247088351, 40.54634217526049], [-0.129506058425991, 40.54796152751577], [-0.12749032698109, 40.546394117797455]]]}}, {"type": "Feature", "properties": {"id": "382611", "elemento": "Ombria. LLOCS", "texto_normalizado": "Ombria de la Giroveta"}, "geometry": {"type": "Polygon", "coordinates": [[[-0.151851933619134, 40.54442550019032], [-0.150886104951283, 40.54510072771162], [-0.147454135402195, 40.545977183613005], [-0.146554550024893, 40.545581590984135], [-0.14654423998183, 40.54508881783391], [-0.148537324052098, 40.54401003715885], [-0.149710392284273, 40.54434087114019], [-0.150922172580563, 40.5437591069033], [-0.152045567957164, 40.54427934422399], [-0.151851933619134, 40.54442550019032]]]}}, {"type": "Feature", "properties": {"id": "373929", "elemento": "Camp, bancal. LLOCS", "texto_normalizado": "el Pla de Donís"}, "geometry": {"type": "Polygon", "coordinates": [[[-0.105397951549205, 40.56146924138355], [-0.104135710950809, 40.561755334098464], [-0.093148108422844, 40.56052590982737], [-0.093409238676278, 40.55882457422519], [-0.096747581012963, 40.558940359243095], [-0.105319321969401, 40.56075630149005], [-0.105397951549205, 40.56146924138355]]]}}, {"type": "Feature", "properties": {"id": "390083", "elemento": "Camp, bancal. LLOCS", "texto_normalizado": "el Pla de la Giroveta"}, "geometry": {"type": "Polygon", "coordinates": [[[-0.158015561546491, 40.53609746591892], [-0.157115697869669, 40.53595615276894], [-0.156443654211344, 40.53584427623227], [-0.156114513218045, 40.535748786383664], [-0.155478715789781, 40.53551863870961], [-0.155392160063791, 40.53534968509795], [-0.155830019855785, 40.535090381081375], [-0.156209491967856, 40.53498057037622], [-0.156497025220699, 40.53507503516971], [-0.157106986077692, 40.53542369943926], [-0.157651528349368, 40.53559598455208], [-0.158015561546491, 40.53609746591892]]]}}, {"type": "Feature", "properties": {"id": "389364", "elemento": "Camp, bancal. LLOCS", "texto_normalizado": "la Pedregosa del Mas d'Adell"}, "geometry": {"type": "Polygon", "coordinates": [[[-0.15062643369936, 40.564547600488254], [-0.151600251086133, 40.564023509971896], [-0.152873951609053, 40.56362993705769], [-0.153245378924555, 40.56338886609786], [-0.154018767878262, 40.564064961149995], [-0.153952299510904, 40.56416758509752], [-0.153481724087147, 40.5639742664917], [-0.152504231244466, 40.564435725676034], [-0.151921525153244, 40.5644302861686], [-0.150966174617935, 40.564887312769194], [-0.15062643369936, 40.564547600488254]]]}}, {"type": "Feature", "properties": {"id": "384433", "elemento": "Camp, bancal. LLOCS", "texto_normalizado": "el Pla del Molí de Vicent"}, "geometry": {"type": "Polygon", "coordinates": [[[-0.182437798673032, 40.574956373064374], [-0.183070343053548, 40.574685832398366], [-0.183681762758183, 40.57525963668899], [-0.183750668976758, 40.57585197748622], [-0.182112485254905, 40.57791711862385], [-0.181387794764706, 40.578701753281365], [-0.180630749069047, 40.57956105970455], [-0.180913255922453, 40.57849156829054], [-0.181142421844706, 40.5776244992132], [-0.18159121930592, 40.576985219156754], [-0.182129703745143, 40.5767580645844], [-0.182020424300381, 40.57607818350454], [-0.182437798673032, 40.574956373064374]]]}}, {"type": "Feature", "properties": {"id": "385816", "elemento": "Solana. LLOCS", "texto_normalizado": "Solana de Guardiola"}, "geometry": {"type": "Polygon", "coordinates": [[[-0.156308747035223, 40.554512847296685], [-0.155556314804962, 40.55432748923746], [-0.154941171563677, 40.55385158778331], [-0.153808853947354, 40.55353769734756], [-0.153996182978191, 40.55280353788286], [-0.154207322053181, 40.55224472992575], [-0.154515078559824, 40.55210932678168], [-0.154896279986238, 40.552698623180575], [-0.155698036646968, 40.55270249225947], [-0.156070553898525, 40.55275933335843], [-0.156241680395512, 40.55339111247], [-0.156912227059702, 40.55329641492969], [-0.156308747035223, 40.554512847296685]]]}}, {"type": "Feature", "properties": {"id": "386258", "elemento": "Camp, bancal. LLOCS", "texto_normalizado": "Llargueres de la Giroveta"}, "geometry": {"type": "Polygon", "coordinates": [[[-0.14882679140771, 40.54258729323187], [-0.148975487801199, 40.54227321096016], [-0.148855713810091, 40.54215109485801], [-0.148191670240947, 40.542094974312334], [-0.148496396699033, 40.541784747738085], [-0.149086615043052, 40.541862874728864], [-0.149400321603352, 40.5420771618345], [-0.149686190902244, 40.542211321733575], [-0.150036830291289, 40.54229147206948], [-0.150368318336387, 40.54257769026106], [-0.150649450475845, 40.54306920451732], [-0.150931931432316, 40.543528975746355], [-0.151136246830293, 40.543867659254374], [-0.15141909913694, 40.54407323519936], [-0.152096233986829, 40.544312369734165], [-0.151253557341279, 40.545030356509415], [-0.150625095217947, 40.54462559853676], [-0.150256732959308, 40.54398099816882], [-0.149845757348069, 40.54335917587224], [-0.149454549217468, 40.54300793127433], [-0.149273707894678, 40.54285253301573], [-0.14882679140771, 40.54258729323187]]]}}, {"type": "Feature", "properties": {"id": "387712", "elemento": "Camp, bancal. LLOCS", "texto_normalizado": "la Foieteta de Marín"}, "geometry": {"type": "Polygon", "coordinates": [[[-0.175537109493018, 40.57053761476464], [-0.176117227230442, 40.570999840973904], [-0.176436671586551, 40.571126813490544], [-0.176695570596696, 40.5713063214096], [-0.175973229541195, 40.57213315286464], [-0.175627518934129, 40.57196184510811], [-0.175373657283326, 40.57178642934998], [-0.174525628249738, 40.57171880572075], [-0.174281843839611, 40.5715515786061], [-0.173886168989468, 40.57120066837777], [-0.17522692928501, 40.57034585246842], [-0.175467770201446, 40.570576249673245], [-0.175537109493018, 40.57053761476464]]]}}, {"type": "Feature", "properties": {"id": "405017", "elemento": "Camp, bancal. LLOCS", "texto_normalizado": "Hort del Mas de Marín"}, "geometry": {"type": "Polygon", "coordinates": [[[-0.181270931601035, 40.57267690164582], [-0.181435450742033, 40.57264834888142], [-0.181687819296506, 40.57271091225397], [-0.18174110710834, 40.5728695017417], [-0.181610244345461, 40.573405763852485], [-0.181554806837343, 40.57314385144241], [-0.181463401348827, 40.572944612038356], [-0.181278577584624, 40.572886080887706], [-0.181142004979134, 40.572916109425286], [-0.180997639334027, 40.5729332383061], [-0.181086998694349, 40.57274036400518], [-0.181270931601035, 40.57267690164582]]]}}, {"type": "Feature", "properties": {"id": "390279", "elemento": "Devesa. LLOCS", "texto_normalizado": "Devesa de la Torre Blanca"}, "geometry": {"type": "Polygon", "coordinates": [[[-0.138517356422591, 40.550766989042835], [-0.138158912815216, 40.55086931714288], [-0.137199176692495, 40.54968572148744], [-0.136916511565503, 40.54898759818165], [-0.137709662076417, 40.548459141192964], [-0.13793467313492, 40.550021711263845], [-0.138105700507177, 40.55040725520929], [-0.138517356422591, 40.550766989042835]]]}}, {"type": "Feature", "properties": {"id": "405252", "elemento": "Bosc. LLOCS", "texto_normalizado": "Freixeres del Mas de Marín"}, "geometry": {"type": "Polygon", "coordinates": [[[-0.180845938275595, 40.57277547317701], [-0.180811236034282, 40.5728079901528], [-0.180791850428044, 40.57287265594181], [-0.180567111270578, 40.57281632652315], [-0.18045535268977, 40.57269920514794], [-0.180393214352492, 40.57259123920179], [-0.180383178699605, 40.572482957970706], [-0.18047837507761, 40.57244874102952], [-0.180679751765032, 40.57251562210628], [-0.180804465134496, 40.57262193846267], [-0.180863241118153, 40.57271075560977], [-0.180865322654538, 40.57271080644665], [-0.180845938275595, 40.57277547317701]]]}}, {"type": "Feature", "properties": {"id": "387952", "elemento": "Devesa. LLOCS", "texto_normalizado": "Devesa de la Giroveta"}, "geometry": {"type": "Polygon", "coordinates": [[[-0.150099302405532, 40.54024761618568], [-0.1485407298903, 40.54016941248628], [-0.148633894045084, 40.53871004391767], [-0.150280356906084, 40.538679201676885], [-0.150099302405532, 40.54024761618568]]]}}, {"type": "Feature", "properties": {"id": "369444", "elemento": "Bosc. LLOCS", "texto_normalizado": "Roureres de la Torre Segura"}, "geometry": {"type": "Polygon", "coordinates": [[[-0.123482459691097, 40.53412545238545], [-0.127299533881789, 40.53333078317798], [-0.131407339908405, 40.53352824864612], [-0.129676040082114, 40.53944872712309], [-0.125902203100532, 40.538981477771316], [-0.122787833091287, 40.537704384903336], [-0.123482459691097, 40.53412545238545]]]}}, {"type": "Feature", "properties": {"id": "390567", "elemento": "Paratge. LLOCS", "texto_normalizado": "la Pala"}, "geometry": {"type": "Polygon", "coordinates": [[[-0.131616255452307, 40.52710666145679], [-0.130200905661354, 40.52709532188639], [-0.129932522301039, 40.52631015342965], [-0.131472309116927, 40.52633253223239], [-0.131616255452307, 40.52710666145679]]]}}, {"type": "Feature", "properties": {"id": "373999", "elemento": "Partida. LLOCS", "texto_normalizado": "el Mas Gran"}, "geometry": {"type": "Polygon", "coordinates": [[[-0.107436734056939, 40.53954139295962], [-0.107769121698297, 40.53924785552063], [-0.114029783181577, 40.54354607528511], [-0.119826730603354, 40.54799126707873], [-0.118486782748996, 40.54855361482322], [-0.106831473319377, 40.540056147179385], [-0.107436734056939, 40.53954139295962]]]}}, {"type": "Feature", "properties": {"id": "385988", "elemento": "Bosc. LLOCS", "texto_normalizado": "Bosc del Mas de Marín"}, "geometry": {"type": "Polygon", "coordinates": [[[-0.179596629638502, 40.56779752055603], [-0.181046659693789, 40.56849228020213], [-0.181142952445624, 40.569424063807205], [-0.180500562722231, 40.56983734260222], [-0.180049746273332, 40.569905769401544], [-0.179448096046099, 40.5695971473541], [-0.179389520204613, 40.56900787016974], [-0.17919006161065, 40.56879645629206], [-0.178964121958557, 40.568719440071945], [-0.178775540767806, 40.56899286589488], [-0.178614440759292, 40.569108086654], [-0.178319658853472, 40.5689340595845], [-0.178626048508113, 40.56858407579727], [-0.178639723376473, 40.56825871188531], [-0.178593694521104, 40.56811459734006], [-0.17877994041657, 40.56789672073185], [-0.17911760917323, 40.56779375905421], [-0.179429129440606, 40.56781725917073], [-0.17958422345014, 40.56784488001545], [-0.179596629638502, 40.56779752055603]]]}}, {"type": "Feature", "properties": {"id": "376824", "elemento": "Bosc. LLOCS", "texto_normalizado": "Bosc de la Torre Montserrat"}, "geometry": {"type": "Polygon", "coordinates": [[[-0.148301573788472, 40.56050604496756], [-0.147833772027822, 40.560037716948635], [-0.148244608694843, 40.5599505552096], [-0.149101836525266, 40.55989824846616], [-0.149774085428686, 40.560097556961026], [-0.150217596005068, 40.56069122146262], [-0.150829201835086, 40.561005620318646], [-0.152252023883079, 40.562699708748404], [-0.1515832362729, 40.563118837019154], [-0.150583578585022, 40.56368200870928], [-0.149029424680577, 40.56405671430085], [-0.147574622682656, 40.56346272114127], [-0.146414177862251, 40.56305075044033], [-0.147785976981413, 40.5622445934061], [-0.147564456880774, 40.56174759505782], [-0.147860490547742, 40.561326936076924], [-0.148301573788472, 40.56050604496756]]]}}, {"type": "Feature", "properties": {"id": "390507", "elemento": "Llogaret (-1.000 h.). NUCLIS DE POBLACIÓ", "texto_normalizado": "els Llivis"}, "geometry": {"type": "Polygon", "coordinates": [[[-0.114094204705029, 40.562974732227126], [-0.114382847131909, 40.56290610804741], [-0.114656721289321, 40.56300797948388], [-0.114890713201487, 40.5632656678151], [-0.114705005852736, 40.563557802412134], [-0.114464661545406, 40.56373094663666], [-0.114299719755505, 40.563900120732576], [-0.113641751303611, 40.56397986640474], [-0.113194368136398, 40.56376286560373], [-0.113252692837814, 40.56362597455259], [-0.113508835739911, 40.563225527428166], [-0.113811447461505, 40.56305754496023], [-0.114094204705029, 40.562974732227126]]]}}, {"type": "Feature", "properties": {"id": "390307", "elemento": "Camp, bancal. LLOCS", "texto_normalizado": "Vinya d'Olivares"}, "geometry": {"type": "Polygon", "coordinates": [[[-0.153274632230673, 40.518950620165484], [-0.154952747965828, 40.520302722296094], [-0.155559598346998, 40.52072165504596], [-0.154767663090221, 40.52074070531303], [-0.15400222031991, 40.52020548777593], [-0.153163440511838, 40.519610036081], [-0.153274632230673, 40.518950620165484]]]}}, {"type": "Feature", "properties": {"id": "385848", "elemento": "Solana. LLOCS", "texto_normalizado": "Solà de la Giroveta"}, "geometry": {"type": "Polygon", "coordinates": [[[-0.151199053762253, 40.54156960782471], [-0.146489979375673, 40.54162807516227], [-0.146459785126582, 40.541603496681056], [-0.146491800893256, 40.540849622787796], [-0.151211558412255, 40.540783474126705], [-0.151192044400178, 40.541243736760684], [-0.151199053762253, 40.54156960782471]]]}}, {"type": "Feature", "properties": {"id": "386085", "elemento": "Solana. LLOCS", "texto_normalizado": "Solà d'Olivares"}, "geometry": {"type": "Polygon", "coordinates": [[[-0.154770601116082, 40.523026131534934], [-0.156233199535916, 40.52241076631296], [-0.156906118874369, 40.522252572554066], [-0.158326760555545, 40.522629132804376], [-0.158381782771307, 40.523544033978474], [-0.154750452020389, 40.523502268327235], [-0.154770601116082, 40.523026131534934]]]}}, {"type": "Feature", "properties": {"id": "401193", "elemento": "Camp, bancal. LLOCS", "texto_normalizado": "el Tancat de la Giroveta"}, "geometry": {"type": "Polygon", "coordinates": [[[-0.15645110292017, 40.53836922329385], [-0.157394608767885, 40.538392458072494], [-0.157364158544117, 40.5391122861747], [-0.156420642622696, 40.539089050808954], [-0.15645110292017, 40.53836922329385]]]}}, {"type": "Feature", "properties": {"id": "403595", "elemento": "Bosc. LLOCS", "texto_normalizado": "Rourera dels Llivis"}, "geometry": {"type": "Polygon", "coordinates": [[[-0.118357872925755, 40.561074023973795], [-0.119301666042102, 40.56109758062081], [-0.119285649273972, 40.56147089657654], [-0.119270783378788, 40.56181738191182], [-0.118765364828867, 40.5618047676717], [-0.118326980178604, 40.561793824669664], [-0.118357872925755, 40.561074023973795]]]}}, {"type": "Feature", "properties": {"id": "389333", "elemento": "Camp, bancal. LLOCS", "texto_normalizado": "les Piques"}, "geometry": {"type": "Polygon", "coordinates": [[[-0.143941208803911, 40.55563823849973], [-0.144496703100989, 40.55539777795016], [-0.145306559942342, 40.55529864987761], [-0.14586981585037, 40.555891320707374], [-0.1451056771067, 40.55659415696961], [-0.143813979948651, 40.55618090094495], [-0.143941208803911, 40.55563823849973]]]}}, {"type": "Feature", "properties": {"id": "384532", "elemento": "Ombria. LLOCS", "texto_normalizado": "Ombrieta de Garcia"}, "geometry": {"type": "Polygon", "coordinates": [[[-0.119171542616301, 40.574905259781694], [-0.117966346084009, 40.573858369233925], [-0.11686252518331, 40.57287754833095], [-0.11621083203447, 40.57252762976106], [-0.115682305518769, 40.571735932947284], [-0.116203983438247, 40.57171719223146], [-0.117623378466332, 40.57262646171651], [-0.119099119723051, 40.57368010948166], [-0.120236653701756, 40.57339074347348], [-0.120764566212607, 40.57419829220181], [-0.120264066192243, 40.57469420877235], [-0.119171542616301, 40.574905259781694]]]}}, {"type": "Feature", "properties": {"id": "386933", "elemento": "Camp, bancal. LLOCS", "texto_normalizado": "el Pla de Planet"}, "geometry": {"type": "Polygon", "coordinates": [[[-0.121542825224768, 40.55641882431958], [-0.120162747585604, 40.557027852038495], [-0.118916033713117, 40.55574162200502], [-0.118975202820039, 40.55557627809738], [-0.119329909075708, 40.55507672657434], [-0.119874792216989, 40.554756682969426], [-0.121542825224768, 40.55641882431958]]]}}, {"type": "Feature", "properties": {"id": "387140", "elemento": "Paratge. LLOCS", "texto_normalizado": "les Solsides"}, "geometry": {"type": "Polygon", "coordinates": [[[-0.15421203660923, 40.56926663378272], [-0.154820496231503, 40.569885363696464], [-0.155268220853226, 40.5698725673131], [-0.156036557030218, 40.56942281384815], [-0.156199274338157, 40.56949831726136], [-0.155994005454284, 40.569794546731956], [-0.155647754375872, 40.56997608841492], [-0.154920935588525, 40.57114859449563], [-0.154782950112761, 40.571367620336105], [-0.154138453674739, 40.57100220423669], [-0.153691429296156, 40.57098042314831], [-0.153633277090209, 40.56903531594462], [-0.153951543321453, 40.56896103510226], [-0.15421203660923, 40.56926663378272]]]}}, {"type": "Feature", "properties": {"id": "381706", "elemento": "Bosc. LLOCS", "texto_normalizado": "Rourera de la Torre Montserrat"}, "geometry": {"type": "Polygon", "coordinates": [[[-0.138037906059537, 40.55445216244343], [-0.137006659678768, 40.55421210771208], [-0.136862949238875, 40.55343004837311], [-0.138575755280536, 40.553806157202565], [-0.139631937787966, 40.55370523093712], [-0.139873539042175, 40.552678519041656], [-0.141013877488836, 40.55280209198582], [-0.141726658678282, 40.55293890036634], [-0.142606327621755, 40.55404898258635], [-0.142914882003548, 40.55487483516927], [-0.142190933135252, 40.554999904431355], [-0.140065370606313, 40.55428792593211], [-0.13923122764133, 40.55479949375508], [-0.138037906059537, 40.55445216244343]]]}}, {"type": "Feature", "properties": {"id": "383422", "elemento": "Camp, bancal. LLOCS", "texto_normalizado": "les Freixeres de Cardona"}, "geometry": {"type": "Polygon", "coordinates": [[[-0.153067306131679, 40.55751834323252], [-0.152830695147868, 40.55744895652548], [-0.152674629795806, 40.55744510722008], [-0.152483649049842, 40.55752777885183], [-0.152300043108448, 40.55768212669618], [-0.152010374101134, 40.55788152005156], [-0.15177039842669, 40.557891487102985], [-0.151513989601236, 40.557797777983325], [-0.151008884705444, 40.557674099549565], [-0.149842316145992, 40.55718456070801], [-0.148794214319558, 40.556848868847396], [-0.148846612968955, 40.556595959366064], [-0.149070531470697, 40.5562281297703], [-0.14955555994684, 40.555842915250736], [-0.150611158294487, 40.555265243028124], [-0.150585299686114, 40.55538376274557], [-0.150662741779463, 40.556013237940405], [-0.150861398633851, 40.55624056841523], [-0.151063086640583, 40.556396478752376], [-0.151494035695834, 40.55630384414071], [-0.151747804809112, 40.555968520444644], [-0.151900838893707, 40.5560437908068], [-0.152505910371127, 40.55651151646192], [-0.152991833625556, 40.55708751420096], [-0.153067306131679, 40.55751834323252]]]}}, {"type": "Feature", "properties": {"id": "377281", "elemento": "Camp, bancal. LLOCS", "texto_normalizado": "el Pla dels Llivis"}, "geometry": {"type": "Polygon", "coordinates": [[[-0.105291344243568, 40.56277275527038], [-0.106548067400303, 40.562476582295204], [-0.109071269653326, 40.5620373578665], [-0.113021855767136, 40.56144909142257], [-0.113159381301224, 40.56188431072581], [-0.11282653149018, 40.562600279081174], [-0.11128887075041, 40.56311460600462], [-0.110509955866111, 40.56360585151718], [-0.109404902860118, 40.56393004907588], [-0.107888026247347, 40.564237608053745], [-0.106284918065998, 40.564171614026414], [-0.105788190583896, 40.56407475837106], [-0.105441924003352, 40.563870459922654], [-0.105467945051074, 40.56338769884239], [-0.105291344243568, 40.56277275527038]]]}}, {"type": "Feature", "properties": {"id": "382896", "elemento": "Camp, bancal. LLOCS", "texto_normalizado": "Vinya del Mas de Marín"}, "geometry": {"type": "Polygon", "coordinates": [[[-0.184637486284896, 40.56911369775801], [-0.185720483627201, 40.56929898397803], [-0.185861571269835, 40.57164867834209], [-0.185023535578661, 40.573497866224045], [-0.18376979387831, 40.57291121530236], [-0.184637486284896, 40.56911369775801]]]}}, {"type": "Feature", "properties": {"id": "401161", "elemento": "Solana. LLOCS", "texto_normalizado": "Solà dels Llivis"}, "geometry": {"type": "Polygon", "coordinates": [[[-0.106845774094169, 40.56600791419521], [-0.10778962692932, 40.566031567245524], [-0.107758615558172, 40.566751360611896], [-0.106814752637099, 40.56672770696405], [-0.106845774094169, 40.56600791419521]]]}}, {"type": "Feature", "properties": {"id": "386684", "elemento": "Camp, bancal. LLOCS", "texto_normalizado": "el Pla del Roure"}, "geometry": {"type": "Polygon", "coordinates": [[[-0.159825112074091, 40.53363490992106], [-0.159462766598465, 40.53383253590578], [-0.159173220242093, 40.53378569253981], [-0.158791074769871, 40.53371273746637], [-0.158623654376559, 40.53348618910795], [-0.158526357246061, 40.53332491688199], [-0.15881757509422, 40.532839563874234], [-0.158834682992765, 40.532434847684094], [-0.158829984344991, 40.5322996857201], [-0.158925935909576, 40.53200017941951], [-0.159068856354251, 40.53182098726153], [-0.159580152801022, 40.53154758766917], [-0.159775414990441, 40.531607999317025], [-0.160223312478538, 40.53184938862822], [-0.16036389056074, 40.53197200478339], [-0.160378992385525, 40.53210742168634], [-0.16072456600613, 40.532306574056875], [-0.16025387883325, 40.53309732891314], [-0.160132435376295, 40.533507423386254], [-0.159994208367691, 40.53357551817037], [-0.159825112074091, 40.53363490992106]]]}}]}