{"type": "FeatureCollection", "features": [{"type": "Feature", "properties": {"id": "530046", "elemento": "Masia, mas, casa. EDIFICACIÓ AÏLLADA", "texto_normalizado": "Caseta del Sastre"}, "geometry": {"type": "Point", "coordinates": [-0.184590069295066, 40.568205397057746]}}, {"type": "Feature", "properties": {"id": "530032", "elemento": "Masia, mas, casa. EDIFICACIÓ AÏLLADA", "texto_normalizado": "la Solaneta"}, "geometry": {"type": "Point", "coordinates": [-0.145887388423315, 40.51885959099925]}}, {"type": "Feature", "properties": {"id": "568575", "elemento": "Escola. CENTRES DOCENTS", "texto_normalizado": "Escola dels Llivis"}, "geometry": {"type": "Point", "coordinates": [-0.114143840881236, 40.563400985044495]}}, {"type": "Feature", "properties": {"id": "530001", "elemento": "Era. LLOCS", "texto_normalizado": "Era de la Giroveta"}, "geometry": {"type": "Point", "coordinates": [-0.155363780632231, 40.53665972428667]}}, {"type": "Feature", "properties": {"id": "530002", "elemento": "Muntanyes i pics secundaris. ELEVACIONS DEL TERRENY EN GENERAL", "texto_normalizado": "Llometa de la Giroveta"}, "geometry": {"type": "Point", "coordinates": [-0.155509276979705, 40.540749517753234]}}, {"type": "Feature", "properties": {"id": "523274", "elemento": "Masia, mas, casa. EDIFICACIÓ AÏLLADA", "texto_normalizado": "Maset de Guardiola"}, "geometry": {"type": "Point", "coordinates": [-0.167772977343421, 40.546681445036626]}}, {"type": "Feature", "properties": {"id": "524851", "elemento": "Masia, mas, casa. EDIFICACIÓ AÏLLADA", "texto_normalizado": "Mas Nou"}, "geometry": {"type": "Point", "coordinates": [-0.120686608955676, 40.55850318926983]}}, {"type": "Feature", "properties": {"id": "530096", "elemento": "Masia, mas, casa. EDIFICACIÓ AÏLLADA", "texto_normalizado": "Maset del Cantalar"}, "geometry": {"type": "Point", "coordinates": [-0.146997798682295, 40.554598831445695]}}, {"type": "Feature", "properties": {"id": "530026", "elemento": "Centre de distribució d'energia. CENTRES PRODUCTORS D'ENERGIA", "texto_normalizado": "transformador"}, "geometry": {"type": "Point", "coordinates": [-0.113522272562602, 40.56351572221769]}}, {"type": "Feature", "properties": {"id": "530101", "elemento": "Paret singular. LLOCS D'INTERÉS HISTORICOCULTURAL", "texto_normalizado": "Mitgera de la Torre Montserrat"}, "geometry": {"type": "Point", "coordinates": [-0.147173798663084, 40.54674239875372]}}, {"type": "Feature", "properties": {"id": "530103", "elemento": "Font, ullal. CURSOS D'AIGUA NATURALS", "texto_normalizado": "Font de Cardona"}, "geometry": {"type": "Point", "coordinates": [-0.152392598398882, 40.554713412234484]}}, {"type": "Feature", "properties": {"id": "530105", "elemento": "Era. LLOCS", "texto_normalizado": "Era de Cardona"}, "geometry": {"type": "Point", "coordinates": [-0.151917833962851, 40.555348329417036]}}, {"type": "Feature", "properties": {"id": "546907", "elemento": "Rajoleria. INDÚSTRIES DE LA CONSTRUCCIÓ", "texto_normalizado": "Teuleria del Mas d'Adell"}, "geometry": {"type": "Point", "coordinates": [-0.152963296940299, 40.56820015113012]}}, {"type": "Feature", "properties": {"id": "530012", "elemento": "Muntanyes i pics secundaris. ELEVACIONS DEL TERRENY EN GENERAL", "texto_normalizado": "Collet de la Pelada"}, "geometry": {"type": "Point", "coordinates": [-0.139633080650914, 40.521552904202466]}}, {"type": "Feature", "properties": {"id": "529993", "elemento": "Cova, cau. CAVITATS NATURALS", "texto_normalizado": "Corrals de la Giroveta"}, "geometry": {"type": "Point", "coordinates": [-0.149580737238837, 40.53794062815789]}}, {"type": "Feature", "properties": {"id": "530082", "elemento": "Corral, mallada. EDIFICACIÓ AÏLLADA HABITADA O NO, TEMPORALMENT", "texto_normalizado": "Corral de Marinet"}, "geometry": {"type": "Point", "coordinates": [-0.167276871689508, 40.558729017400076]}}, {"type": "Feature", "properties": {"id": "530085", "elemento": "Muntanyes i pics secundaris. ELEVACIONS DEL TERRENY EN GENERAL", "texto_normalizado": "Collet de Guardiola"}, "geometry": {"type": "Point", "coordinates": [-0.161223621854719, 40.55547109509343]}}, {"type": "Feature", "properties": {"id": "530099", "elemento": "Molló. SENYALS", "texto_normalizado": "Molló de Cardona"}, "geometry": {"type": "Point", "coordinates": [-0.149387359993797, 40.553131500865966]}}, {"type": "Feature", "properties": {"id": "530121", "elemento": "Cabanya. EDIFICACIÓ AÏLLADA HABITADA O NO, TEMPORALMENT", "texto_normalizado": "Caseta dels Caragols"}, "geometry": {"type": "Point", "coordinates": [-0.184526060268118, 40.56538292411985]}}, {"type": "Feature", "properties": {"id": "530080", "elemento": "Pou. MASSES D'AIGUA ARTIFICIALS", "texto_normalizado": "Pou del Mas Gran"}, "geometry": {"type": "Point", "coordinates": [-0.119665660522106, 40.54640251753636]}}, {"type": "Feature", "properties": {"id": "530003", "elemento": "Bassa, abeurador. MASSES D'AIGUA ARTIFICIALS", "texto_normalizado": "Bassa del Tancat"}, "geometry": {"type": "Point", "coordinates": [-0.157266722495902, 40.537308740449056]}}, {"type": "Feature", "properties": {"id": "519885", "elemento": "Encreuament. VIES DE COMUNICACIÓ: CARRETERES, CAMINS", "texto_normalizado": "les Creus"}, "geometry": {"type": "Point", "coordinates": [-0.121713956270514, 40.561232757738914]}}, {"type": "Feature", "properties": {"id": "530035", "elemento": "Font, ullal. CURSOS D'AIGUA NATURALS", "texto_normalizado": "Font dels Llivis"}, "geometry": {"type": "Point", "coordinates": [-0.113086405222803, 40.561394949773934]}}, {"type": "Feature", "properties": {"id": "530062", "elemento": "Font, ullal. CURSOS D'AIGUA NATURALS", "texto_normalizado": "Font del Mas Nou"}, "geometry": {"type": "Point", "coordinates": [-0.116950420322302, 40.55778176713183]}}, {"type": "Feature", "properties": {"id": "530063", "elemento": "Paret singular. LLOCS D'INTERÉS HISTORICOCULTURAL", "texto_normalizado": "Mitgera dels Llivis"}, "geometry": {"type": "Point", "coordinates": [-0.112424946877349, 40.5574192178449]}}, {"type": "Feature", "properties": {"id": "529982", "elemento": "Paret singular. LLOCS D'INTERÉS HISTORICOCULTURAL", "texto_normalizado": "Mitgera del Mas del Garro"}, "geometry": {"type": "Point", "coordinates": [-0.118621084246947, 40.53956001538434]}}, {"type": "Feature", "properties": {"id": "530029", "elemento": "Font, ullal. CURSOS D'AIGUA NATURALS", "texto_normalizado": "Font de la Giroveta"}, "geometry": {"type": "Point", "coordinates": [-0.161934005327295, 40.537096676619235]}}, {"type": "Feature", "properties": {"id": "529937", "elemento": "Font, ullal. CURSOS D'AIGUA NATURALS", "texto_normalizado": "la Cutxola"}, "geometry": {"type": "Point", "coordinates": [-0.123476532417941, 40.514610480668495]}}, {"type": "Feature", "properties": {"id": "523966", "elemento": "Masia, mas, casa. EDIFICACIÓ AÏLLADA", "texto_normalizado": "Mas de Planet"}, "geometry": {"type": "Point", "coordinates": [-0.122680702096755, 40.55451950471921]}}, {"type": "Feature", "properties": {"id": "530075", "elemento": "Masia, mas, casa. EDIFICACIÓ AÏLLADA", "texto_normalizado": "Torre Querol"}, "geometry": {"type": "Point", "coordinates": [-0.14024059315894, 40.56085743103736]}}, {"type": "Feature", "properties": {"id": "529983", "elemento": "Paret singular. LLOCS D'INTERÉS HISTORICOCULTURAL", "texto_normalizado": "Mitgera del Mas Gran"}, "geometry": {"type": "Point", "coordinates": [-0.115432017329515, 40.540354196826385]}}, {"type": "Feature", "properties": {"id": "530078", "elemento": "Masia, mas, casa. EDIFICACIÓ AÏLLADA", "texto_normalizado": "Mas de Cardona"}, "geometry": {"type": "Point", "coordinates": [-0.151973478487647, 40.554836085737236]}}, {"type": "Feature", "properties": {"id": "530095", "elemento": "Muntanyes i pics secundaris. ELEVACIONS DEL TERRENY EN GENERAL", "texto_normalizado": "Mola de la Torre Montserrat"}, "geometry": {"type": "Point", "coordinates": [-0.148214152976755, 40.55432110962678]}}, {"type": "Feature", "properties": {"id": "523112", "elemento": "Muntanyes i pics secundaris. ELEVACIONS DEL TERRENY EN GENERAL", "texto_normalizado": "Collet de Cardona"}, "geometry": {"type": "Point", "coordinates": [-0.149475130405607, 40.5530729623738]}}, {"type": "Feature", "properties": {"id": "530061", "elemento": "Motor, sénia. MASSES D'AIGUA ARTIFICIALS", "texto_normalizado": "Sénia del Mas Nou"}, "geometry": {"type": "Point", "coordinates": [-0.116667637256008, 40.55786685271881]}}, {"type": "Feature", "properties": {"id": "530052", "elemento": "Paret singular. LLOCS D'INTERÉS HISTORICOCULTURAL", "texto_normalizado": "Mitgera de la Torre Querol"}, "geometry": {"type": "Point", "coordinates": [-0.137015437978121, 40.556322205721315]}}, {"type": "Feature", "properties": {"id": "529940", "elemento": "Muntanyes i pics secundaris. ELEVACIONS DEL TERRENY EN GENERAL", "texto_normalizado": "Collet dels Carrascals"}, "geometry": {"type": "Point", "coordinates": [-0.135098795330953, 40.51456155431758]}}, {"type": "Feature", "properties": {"id": "529945", "elemento": "Muntanyes i pics secundaris. ELEVACIONS DEL TERRENY EN GENERAL", "texto_normalizado": "Collet de la Cutxola"}, "geometry": {"type": "Point", "coordinates": [-0.124972444142059, 40.517040494120465]}}, {"type": "Feature", "properties": {"id": "530000", "elemento": "Cabanya. EDIFICACIÓ AÏLLADA HABITADA O NO, TEMPORALMENT", "texto_normalizado": "Pallissa de la Giroveta"}, "geometry": {"type": "Point", "coordinates": [-0.154985194934344, 40.53630563151109]}}, {"type": "Feature", "properties": {"id": "529992", "elemento": "Gorg, cocó, cadolla, toll. MASSES D'AIGUA NATURALS", "texto_normalizado": "Toll de la Giroveta"}, "geometry": {"type": "Point", "coordinates": [-0.151023515249652, 40.53672111123834]}}, {"type": "Feature", "properties": {"id": "529989", "elemento": "Muntanyes i pics secundaris. ELEVACIONS DEL TERRENY EN GENERAL", "texto_normalizado": "Tossal de la Giroveta"}, "geometry": {"type": "Point", "coordinates": [-0.153336942353697, 40.529318897118145]}}, {"type": "Feature", "properties": {"id": "530102", "elemento": "Bassa, abeurador. MASSES D'AIGUA ARTIFICIALS", "texto_normalizado": "Bassa de Cardona"}, "geometry": {"type": "Point", "coordinates": [-0.152621237256093, 40.5538897150022]}}, {"type": "Feature", "properties": {"id": "530088", "elemento": "Pou. MASSES D'AIGUA ARTIFICIALS", "texto_normalizado": "Pou del Mas de Guardiola"}, "geometry": {"type": "Point", "coordinates": [-0.15679102596271, 40.559252512624624]}}, {"type": "Feature", "properties": {"id": "530110", "elemento": "Paret singular. LLOCS D'INTERÉS HISTORICOCULTURAL", "texto_normalizado": "Mitgera de la Torre Blanca"}, "geometry": {"type": "Point", "coordinates": [-0.144030411469483, 40.5536234810924]}}, {"type": "Feature", "properties": {"id": "530065", "elemento": "Corral, mallada. EDIFICACIÓ AÏLLADA HABITADA O NO, TEMPORALMENT", "texto_normalizado": "Corral dels Llivis"}, "geometry": {"type": "Point", "coordinates": [-0.110687349335407, 40.55534530457256]}}, {"type": "Feature", "properties": {"id": "529988", "elemento": "Paret singular. LLOCS D'INTERÉS HISTORICOCULTURAL", "texto_normalizado": "Mitgera de la Giroveta"}, "geometry": {"type": "Point", "coordinates": [-0.148485578916208, 40.5332426073936]}}, {"type": "Feature", "properties": {"id": "529998", "elemento": "Corral, mallada. EDIFICACIÓ AÏLLADA HABITADA O NO, TEMPORALMENT", "texto_normalizado": "Corral de la Giroveta"}, "geometry": {"type": "Point", "coordinates": [-0.155198891230131, 40.53691463077349]}}, {"type": "Feature", "properties": {"id": "522746", "elemento": "Masia, mas, casa. EDIFICACIÓ AÏLLADA", "texto_normalizado": "Mas del Garro"}, "geometry": {"type": "Point", "coordinates": [-0.129084915792618, 40.55053565426624]}}, {"type": "Feature", "properties": {"id": "530068", "elemento": "Coll. DEPRESSIONS DE LA SUPERFÍCIE TERRESTRE", "texto_normalizado": "el Bufador de la Torre Segura"}, "geometry": {"type": "Point", "coordinates": [-0.138645976743591, 40.5472935565241]}}, {"type": "Feature", "properties": {"id": "520792", "elemento": "Paret singular. LLOCS D'INTERÉS HISTORICOCULTURAL", "texto_normalizado": "Mitgera del Campello"}, "geometry": {"type": "Point", "coordinates": [-0.117813695093608, 40.516462557061104]}}, {"type": "Feature", "properties": {"id": "530111", "elemento": "Masia, mas, casa. EDIFICACIÓ AÏLLADA", "texto_normalizado": "Caseta dels Carboners"}, "geometry": {"type": "Point", "coordinates": [-0.148852262708913, 40.54763067819817]}}, {"type": "Feature", "properties": {"id": "530122", "elemento": "Muntanyes i pics secundaris. ELEVACIONS DEL TERRENY EN GENERAL", "texto_normalizado": "Lloma de la Torre Blanca"}, "geometry": {"type": "Point", "coordinates": [-0.135735846068484, 40.55083716301553]}}, {"type": "Feature", "properties": {"id": "530072", "elemento": "Ermita. CENTRES RELIGIOSOS", "texto_normalizado": "Sant Isidre"}, "geometry": {"type": "Point", "coordinates": [-0.133597798440265, 40.54517233079349]}}, {"type": "Feature", "properties": {"id": "530108", "elemento": "Talaia, torre de defensa, torre de guaita. LLOCS D'INTERÉS HISTORICOCULTURAL", "texto_normalizado": "el Tancat de les Creus"}, "geometry": {"type": "Point", "coordinates": [-0.122814266721074, 40.56221454841096]}}, {"type": "Feature", "properties": {"id": "530084", "elemento": "Muntanyes i pics secundaris. ELEVACIONS DEL TERRENY EN GENERAL", "texto_normalizado": "Llomes de Racó"}, "geometry": {"type": "Point", "coordinates": [-0.12813447416655, 40.56105219099462]}}, {"type": "Feature", "properties": {"id": "530008", "elemento": "Era. LLOCS", "texto_normalizado": "Era d'Olivares"}, "geometry": {"type": "Point", "coordinates": [-0.158004449737574, 40.52079728415455]}}, {"type": "Feature", "properties": {"id": "525325", "elemento": "Masia, mas, casa. EDIFICACIÓ AÏLLADA", "texto_normalizado": "Mas de la Giroveta"}, "geometry": {"type": "Point", "coordinates": [-0.155150194421864, 40.53654240441419]}}, {"type": "Feature", "properties": {"id": "528488", "elemento": "Paret singular. LLOCS D'INTERÉS HISTORICOCULTURAL", "texto_normalizado": "Mitgera del Garro"}, "geometry": {"type": "Point", "coordinates": [-0.099970509712297, 40.530221211970876]}}, {"type": "Feature", "properties": {"id": "530089", "elemento": "Arbre singular. LLOCS D'INTERÉS HISTORICOCULTURAL", "texto_normalizado": "Roures de Cardona"}, "geometry": {"type": "Point", "coordinates": [-0.153175651199712, 40.557468585198976]}}, {"type": "Feature", "properties": {"id": "530014", "elemento": "Muntanyes i pics secundaris. ELEVACIONS DEL TERRENY EN GENERAL", "texto_normalizado": "Collet de les Clotxes"}, "geometry": {"type": "Point", "coordinates": [-0.129490818739154, 40.510046679641405]}}, {"type": "Feature", "properties": {"id": "530116", "elemento": "Muntanyes i pics secundaris. ELEVACIONS DEL TERRENY EN GENERAL", "texto_normalizado": "Collet de la Torre Montserrat"}, "geometry": {"type": "Point", "coordinates": [-0.144661522438679, 40.54601056752816]}}, {"type": "Feature", "properties": {"id": "530058", "elemento": "Paret singular. LLOCS D'INTERÉS HISTORICOCULTURAL", "texto_normalizado": "Mitgera de la Torre Segura"}, "geometry": {"type": "Point", "coordinates": [-0.135157061484626, 40.54897572329039]}}, {"type": "Feature", "properties": {"id": "530071", "elemento": "Granja. INDÚSTRIES AGROALIMENTÀRIES", "texto_normalizado": "Granges de la Torre Segura"}, "geometry": {"type": "Point", "coordinates": [-0.13281798267667, 40.54541601173351]}}, {"type": "Feature", "properties": {"id": "529990", "elemento": "Muntanyes i pics secundaris. ELEVACIONS DEL TERRENY EN GENERAL", "texto_normalizado": "Collet de la Solaneta"}, "geometry": {"type": "Point", "coordinates": [-0.148959425706527, 40.523230724524105]}}, {"type": "Feature", "properties": {"id": "519343", "elemento": "Masia, mas, casa. EDIFICACIÓ AÏLLADA", "texto_normalizado": "Torre Montserrat"}, "geometry": {"type": "Point", "coordinates": [-0.144337305380519, 40.55679113066392]}}, {"type": "Feature", "properties": {"id": "530087", "elemento": "Bassa, abeurador. MASSES D'AIGUA ARTIFICIALS", "texto_normalizado": "Bassa de Guardiola"}, "geometry": {"type": "Point", "coordinates": [-0.157121401123784, 40.557950306210046]}}, {"type": "Feature", "properties": {"id": "530117", "elemento": "Muntanyes i pics secundaris. ELEVACIONS DEL TERRENY EN GENERAL", "texto_normalizado": "Collet de la Giroveta"}, "geometry": {"type": "Point", "coordinates": [-0.148532984655529, 40.54386694057899]}}, {"type": "Feature", "properties": {"id": "525801", "elemento": "Muntanyes i pics secundaris. ELEVACIONS DEL TERRENY EN GENERAL", "texto_normalizado": "Collet de la Torre Segura"}, "geometry": {"type": "Point", "coordinates": [-0.135956200826411, 40.54870583696176]}}, {"type": "Feature", "properties": {"id": "529976", "elemento": "Font, ullal. CURSOS D'AIGUA NATURALS", "texto_normalizado": "la Cisterna"}, "geometry": {"type": "Point", "coordinates": [-0.130663638518591, 40.52601224296815]}}, {"type": "Feature", "properties": {"id": "530097", "elemento": "Masia, mas, casa. EDIFICACIÓ AÏLLADA", "texto_normalizado": "Mas de Cros"}, "geometry": {"type": "Point", "coordinates": [-0.134619784384514, 40.564026065757695]}}, {"type": "Feature", "properties": {"id": "530045", "elemento": "Masia, mas, casa. EDIFICACIÓ AÏLLADA", "texto_normalizado": "Torre Segura"}, "geometry": {"type": "Point", "coordinates": [-0.133760350929526, 40.5447386174549]}}, {"type": "Feature", "properties": {"id": "530073", "elemento": "Masia, mas, casa. EDIFICACIÓ AÏLLADA", "texto_normalizado": "Mas d'Adell"}, "geometry": {"type": "Point", "coordinates": [-0.152457496987594, 40.567515150816334]}}, {"type": "Feature", "properties": {"id": "529946", "elemento": "Muntanyes i pics secundaris. ELEVACIONS DEL TERRENY EN GENERAL", "texto_normalizado": "Collet de la Pelada"}, "geometry": {"type": "Point", "coordinates": [-0.142451337040803, 40.52061381718548]}}, {"type": "Feature", "properties": {"id": "530051", "elemento": "Paret singular. LLOCS D'INTERÉS HISTORICOCULTURAL", "texto_normalizado": "Mitgera de Planet"}, "geometry": {"type": "Point", "coordinates": [-0.126947214434989, 40.55843931957631]}}, {"type": "Feature", "properties": {"id": "530106", "elemento": "Masia, mas, casa. EDIFICACIÓ AÏLLADA", "texto_normalizado": "Mas de Racó"}, "geometry": {"type": "Point", "coordinates": [-0.127840709230542, 40.564705389586294]}}, {"type": "Feature", "properties": {"id": "522795", "elemento": "Masia, mas, casa. EDIFICACIÓ AÏLLADA", "texto_normalizado": "Torre Blanca"}, "geometry": {"type": "Point", "coordinates": [-0.1416427173336, 40.549708763379975]}}, {"type": "Feature", "properties": {"id": "530011", "elemento": "Paret singular. LLOCS D'INTERÉS HISTORICOCULTURAL", "texto_normalizado": "Mitgera de la Torre Segura"}, "geometry": {"type": "Point", "coordinates": [-0.129876817846021, 40.53573132155129]}}, {"type": "Feature", "properties": {"id": "530060", "elemento": "Paret singular. LLOCS D'INTERÉS HISTORICOCULTURAL", "texto_normalizado": "Mitgera de Modest"}, "geometry": {"type": "Point", "coordinates": [-0.136222806798042, 40.552068485228354]}}, {"type": "Feature", "properties": {"id": "530104", "elemento": "Arbre singular. LLOCS D'INTERÉS HISTORICOCULTURAL", "texto_normalizado": "Servera de Cardona"}, "geometry": {"type": "Point", "coordinates": [-0.152903393570878, 40.55480068350568]}}, {"type": "Feature", "properties": {"id": "530006", "elemento": "Muntanyes i pics secundaris. ELEVACIONS DEL TERRENY EN GENERAL", "texto_normalizado": "Moleta de la Giroveta"}, "geometry": {"type": "Point", "coordinates": [-0.162683418511711, 40.53005100439834]}}, {"type": "Feature", "properties": {"id": "530044", "elemento": "Motor, sénia. MASSES D'AIGUA ARTIFICIALS", "texto_normalizado": "Sénia del Mas de Marín"}, "geometry": {"type": "Point", "coordinates": [-0.18170097283555, 40.57282800560726]}}, {"type": "Feature", "properties": {"id": "530057", "elemento": "Masia, mas, casa. EDIFICACIÓ AÏLLADA", "texto_normalizado": "Mas de Marín"}, "geometry": {"type": "Point", "coordinates": [-0.176177927572193, 40.56953712489145]}}, {"type": "Feature", "properties": {"id": "530115", "elemento": "Era. LLOCS", "texto_normalizado": "Era de la Torre Blanca"}, "geometry": {"type": "Point", "coordinates": [-0.141237966512551, 40.55066916124216]}}, {"type": "Feature", "properties": {"id": "530120", "elemento": "Arbre singular. LLOCS D'INTERÉS HISTORICOCULTURAL", "texto_normalizado": "Roures de Guardiola"}, "geometry": {"type": "Point", "coordinates": [-0.155624106265844, 40.55685605241102]}}, {"type": "Feature", "properties": {"id": "530007", "elemento": "Pou. MASSES D'AIGUA ARTIFICIALS", "texto_normalizado": "Pou d'Olivares"}, "geometry": {"type": "Point", "coordinates": [-0.15749578339812, 40.520123831658964]}}, {"type": "Feature", "properties": {"id": "530077", "elemento": "Era. LLOCS", "texto_normalizado": "Era de Guardiola"}, "geometry": {"type": "Point", "coordinates": [-0.156667668547678, 40.55990920467146]}}, {"type": "Feature", "properties": {"id": "530027", "elemento": "Ermita. CENTRES RELIGIOSOS", "texto_normalizado": "Ermita de Sant Pere Màrtir"}, "geometry": {"type": "Point", "coordinates": [-0.11446527219699, 40.5635806065918]}}, {"type": "Feature", "properties": {"id": "530109", "elemento": "Arbre singular. LLOCS D'INTERÉS HISTORICOCULTURAL", "texto_normalizado": "Tarabines de Cardona"}, "geometry": {"type": "Point", "coordinates": [-0.151095043478831, 40.5568707206833]}}, {"type": "Feature", "properties": {"id": "530113", "elemento": "Paret singular. LLOCS D'INTERÉS HISTORICOCULTURAL", "texto_normalizado": "Mitgera de la Giroveta"}, "geometry": {"type": "Point", "coordinates": [-0.149534724463404, 40.54553605596408]}}, {"type": "Feature", "properties": {"id": "530056", "elemento": "Paret singular. LLOCS D'INTERÉS HISTORICOCULTURAL", "texto_normalizado": "Mitgera del Garro"}, "geometry": {"type": "Point", "coordinates": [-0.129830559545004, 40.5501938669198]}}, {"type": "Feature", "properties": {"id": "530086", "elemento": "Arbre singular. LLOCS D'INTERÉS HISTORICOCULTURAL", "texto_normalizado": "Anoguer de Guardiola"}, "geometry": {"type": "Point", "coordinates": [-0.158078673760142, 40.55836630349244]}}, {"type": "Feature", "properties": {"id": "530054", "elemento": "Masia, mas, casa. EDIFICACIÓ AÏLLADA", "texto_normalizado": "l'Oronal"}, "geometry": {"type": "Point", "coordinates": [-0.141671152986377, 40.56898843491458]}}, {"type": "Feature", "properties": {"id": "530053", "elemento": "Font, ullal. CURSOS D'AIGUA NATURALS", "texto_normalizado": "Font del Mas de Marín"}, "geometry": {"type": "Point", "coordinates": [-0.175970995430679, 40.569774181705064]}}, {"type": "Feature", "properties": {"id": "530028", "elemento": "Paret singular. LLOCS D'INTERÉS HISTORICOCULTURAL", "texto_normalizado": "Mitgera del Dolço"}, "geometry": {"type": "Point", "coordinates": [-0.109819658208156, 40.56938726978136]}}, {"type": "Feature", "properties": {"id": "530064", "elemento": "Paret singular. LLOCS D'INTERÉS HISTORICOCULTURAL", "texto_normalizado": "Mitgera de Julià"}, "geometry": {"type": "Point", "coordinates": [-0.111964170345407, 40.55360261037627]}}, {"type": "Feature", "properties": {"id": "530119", "elemento": "Era. LLOCS", "texto_normalizado": "Era del Mas de Marín"}, "geometry": {"type": "Point", "coordinates": [-0.176160261946028, 40.568657987159874]}}, {"type": "Feature", "properties": {"id": "530005", "elemento": "Arbre singular. LLOCS D'INTERÉS HISTORICOCULTURAL", "texto_normalizado": "Roure de la Giroveta"}, "geometry": {"type": "Point", "coordinates": [-0.159416467559595, 40.53394261087124]}}, {"type": "Feature", "properties": {"id": "529938", "elemento": "Muntanyes i pics secundaris. ELEVACIONS DEL TERRENY EN GENERAL", "texto_normalizado": "Collets de la Rourera"}, "geometry": {"type": "Point", "coordinates": [-0.120488931412309, 40.52895473403948]}}, {"type": "Feature", "properties": {"id": "530100", "elemento": "Masia, mas, casa. EDIFICACIÓ AÏLLADA", "texto_normalizado": "Mas de Modest"}, "geometry": {"type": "Point", "coordinates": [-0.139833200057005, 40.555211470997605]}}, {"type": "Feature", "properties": {"id": "530037", "elemento": "Masia, mas, casa. EDIFICACIÓ AÏLLADA", "texto_normalizado": "Hostal d'Olivares"}, "geometry": {"type": "Point", "coordinates": [-0.158223714148154, 40.52086624421395]}}, {"type": "Feature", "properties": {"id": "530094", "elemento": "Masia, mas, casa. EDIFICACIÓ AÏLLADA", "texto_normalizado": "Mas de Guardiola"}, "geometry": {"type": "Point", "coordinates": [-0.156725204254444, 40.55948994516111]}}, {"type": "Feature", "properties": {"id": "530076", "elemento": "Paret singular. LLOCS D'INTERÉS HISTORICOCULTURAL", "texto_normalizado": "Mitgera de Cardona"}, "geometry": {"type": "Point", "coordinates": [-0.154082928328524, 40.55734320105966]}}, {"type": "Feature", "properties": {"id": "530059", "elemento": "Muntanyes i pics secundaris. ELEVACIONS DEL TERRENY EN GENERAL", "texto_normalizado": "Lloma del Mas de Modest"}, "geometry": {"type": "Point", "coordinates": [-0.134969838891519, 40.551656091849985]}}, {"type": "Feature", "properties": {"id": "530091", "elemento": "Bassa, abeurador. MASSES D'AIGUA ARTIFICIALS", "texto_normalizado": "Bassa de Cardona"}, "geometry": {"type": "Point", "coordinates": [-0.153996036673531, 40.55693592234433]}}, {"type": "Feature", "properties": {"id": "529994", "elemento": "Paret singular. LLOCS D'INTERÉS HISTORICOCULTURAL", "texto_normalizado": "Mitgera de la Giroveta"}, "geometry": {"type": "Point", "coordinates": [-0.146565790303859, 40.53954865885849]}}, {"type": "Feature", "properties": {"id": "529935", "elemento": "Muntanyes i pics secundaris. ELEVACIONS DEL TERRENY EN GENERAL", "texto_normalizado": "Collet de la Clotxa"}, "geometry": {"type": "Point", "coordinates": [-0.127551614801839, 40.51001060774121]}}, {"type": "Feature", "properties": {"id": "530048", "elemento": "Masia, mas, casa. EDIFICACIÓ AÏLLADA", "texto_normalizado": "Mas de Julià"}, "geometry": {"type": "Point", "coordinates": [-0.157968915079931, 40.568830294641785]}}, {"type": "Feature", "properties": {"id": "519295", "elemento": "Masia, mas, casa. EDIFICACIÓ AÏLLADA", "texto_normalizado": "el Molinet"}, "geometry": {"type": "Point", "coordinates": [-0.141362057773625, 40.53622810041838]}}, {"type": "Feature", "properties": {"id": "549497", "elemento": "Masia, mas, casa. EDIFICACIÓ AÏLLADA", "texto_normalizado": "Mas de Marinet"}, "geometry": {"type": "Point", "coordinates": [-0.16729380448073, 40.55871594280919]}}, {"type": "Feature", "properties": {"id": "530066", "elemento": "Font, ullal. CURSOS D'AIGUA NATURALS", "texto_normalizado": "Ullals de la Torre Segura"}, "geometry": {"type": "Point", "coordinates": [-0.129779628347084, 40.54487341374558]}}]}