{"type": "FeatureCollection", "crs": {"type": "name", "properties": {"name": "EPSG:4326"}}, "features": [{"type": "Feature", "id": 1110, "geometry": {"type": "Point", "coordinates": [-0.18632837947679703, 40.50405303771636]}, "properties": {"objectid": 1110, "cod5": "120385", "cod6": "022", "tipo_el": "ABR", "nomb_el": "Fuente dels Carrerons", "vp_el": "120385_000000_033_000", "aproba_el": "29/09/1995", "boe_el": "N/A", "bop_el": "N/A", "dogv_el": "03/11/1995", "munic_el": "Castellfort", "obser_el": " ", "cod_el": "120385_ABR_022", "sup_el": 0, "clasificad": "Resolución"}}, {"type": "Feature", "id": 1114, "geometry": {"type": "Point", "coordinates": [-0.16525111886556862, 40.529164157613806]}, "properties": {"objectid": 1114, "cod5": "120385", "cod6": "018", "tipo_el": "ABR", "nomb_el": "De la Giroveta", "vp_el": "120385_120803_017_000", "aproba_el": "29/09/1995", "boe_el": "N/A", "bop_el": "N/A", "dogv_el": "03/11/1995", "munic_el": "Castellfort", "obser_el": " ", "cod_el": "120385_ABR_018", "sup_el": 0, "clasificad": "Resolución"}}, {"type": "Feature", "id": 1125, "geometry": {"type": "Point", "coordinates": [-0.16969128627611252, 40.54322645341131]}, "properties": {"objectid": 1125, "cod5": "120385", "cod6": "007", "tipo_el": "ABR", "nomb_el": "Bassa del Dols", "vp_el": "120385_000000_006_000", "aproba_el": "29/09/1995", "boe_el": "N/A", "bop_el": "N/A", "dogv_el": "03/11/1995", "munic_el": "Castellfort", "obser_el": " ", "cod_el": "120385_ABR_007", "sup_el": 0, "clasificad": "Resolución"}}, {"type": "Feature", "id": 1126, "geometry": {"type": "Point", "coordinates": [-0.18084868646180868, 40.53408887489397]}, "properties": {"objectid": 1126, "cod5": "120385", "cod6": "006", "tipo_el": "ABR", "nomb_el": "Fuente de la Umbría", "vp_el": "120385_000000_006_000", "aproba_el": "29/09/1995", "boe_el": "N/A", "bop_el": "N/A", "dogv_el": "03/11/1995", "munic_el": "Castellfort", "obser_el": " ", "cod_el": "120385_ABR_006", "sup_el": 0, "clasificad": "Resolución"}}, {"type": "Feature", "id": 1134, "geometry": {"type": "Point", "coordinates": [-0.17515769217713284, 40.50562440861159]}, "properties": {"objectid": 1134, "cod5": "120385", "cod6": "003", "tipo_el": "DES", "nomb_el": "Descansadero de San Pere o de la Cova del Moro", "vp_el": "120385_000000_032_000", "aproba_el": "29/09/1995", "boe_el": "N/A", "bop_el": "N/A", "dogv_el": "03/11/1995", "munic_el": "Castellfort", "obser_el": " ", "cod_el": "120385_DES_003", "sup_el": 32250, "clasificad": "Resolución"}}]}